{"type":"FeatureCollection","features":[{"type":"Feature","id":78,"geometry":{"type":"Polygon","coordinates":[[[103.90952305196701,1.6726562841678083],[103.90943057304216,1.6726842325594644],[103.90934580441692,1.672722086263055],[103.90926748527336,1.6727615758307965],[103.90912259344846,1.6728393127923098],[103.90899868301523,1.6729352288506452],[103.90891175003455,1.673013176690762],[103.90885224168582,1.6730730587955664],[103.90869316536568,1.6730875204055915],[103.90851835732188,1.6730875530604803],[103.90845543338992,1.6729611852939634],[103.9084036292251,1.6728568408405489],[103.90835302864014,1.6727348046856305],[103.90829535373094,1.6726191101744174],[103.90820530809783,1.6724781175805958],[103.90815411999999,1.6723854070993156],[103.90809491107287,1.6722865394556798],[103.90801348063307,1.672163723304573],[103.90796477270467,1.6720778391181343],[103.90794439846535,1.6719654287931773],[103.90789290139836,1.6718721429281629],[103.90785341016309,1.6717309750567315],[103.90770778833202,1.6711858290810453],[103.9072932186598,1.6699858789756932],[103.90692835189554,1.6692520965904443],[103.90586307314616,1.668786135642747],[103.90527123826293,1.6695003410325109],[103.90324634372404,1.6699072939145267],[103.90227007852604,1.6707901046053073],[103.90113575345659,1.6704629610813608],[103.90037380833589,1.6698271096982487],[103.9004011784205,1.6694626038799079],[103.90100342425393,1.662879883475768],[103.90089922792916,1.6628894602876008],[103.89834551946925,1.6629587165618764],[103.89828275449486,1.6582429534467977],[103.89821146734337,1.6504327829294385],[103.89584720505837,1.6513041202456875],[103.89391015903078,1.6478299675952561],[103.89115430024734,1.6427289833787406],[103.88926131629499,1.6408106975594954],[103.88731590415127,1.6388141219097783],[103.88661353402581,1.638524150973826],[103.88632220527062,1.6384914458768063],[103.88472523473459,1.6368485543353375],[103.88296730687088,1.6351060804838031],[103.88104940124956,1.633373066010619],[103.87949194194672,1.6319495098644219],[103.87884003930905,1.631131098153253],[103.87872410999577,1.6309849968476073],[103.8781576521999,1.6302758469464558],[103.88130043293602,1.6279650243281452],[103.88394658427583,1.6260313160857962],[103.88659305235652,1.6241217380943742],[103.88929715775019,1.6221641990224525],[103.8910397683255,1.6208637946487288],[103.89269793351701,1.6196262422861882],[103.89466034907399,1.6181647633948497],[103.89299207345195,1.6158893562391223],[103.8894763815132,1.6112288569135442],[103.88625055987274,1.6068695174551189],[103.88456597286975,1.6045817916671883],[103.88186409685778,1.6009186925028094],[103.87592896246933,1.6064092140750228],[103.87529518834098,1.6069293546380397],[103.8687973308244,1.5997578101844865],[103.86637863978497,1.5970577748536186],[103.86244752023937,1.601202488758178],[103.85931869390616,1.5995842776654472],[103.85774216037031,1.5982479121744795],[103.85585810046845,1.599910150404972],[103.85541684851594,1.5993988297811665],[103.85094211260565,1.6031820596493487],[103.8492659536732,1.601342478439691],[103.84805662318068,1.6000164389501428],[103.84684173370667,1.5986223201108245],[103.8459357530759,1.5993545549441572],[103.8446176293774,1.6005301814606865],[103.84413366211768,1.6009628721157882],[103.843556598256,1.601478890468385],[103.84215155032396,1.6027646729533145],[103.84071874302323,1.604075056680352],[103.84032571261562,1.604440668053372],[103.83992651752044,1.604812237576204],[103.83939540499617,1.6053067346913457],[103.8389024848206,1.6057860547381204],[103.83764508954661,1.6068857380148813],[103.83606557448284,1.6084849056060166],[103.8353272730457,1.6091556628312307],[103.83489540159496,1.6095479873857645],[103.83360410540105,1.6107215973731102],[103.83252025505055,1.6117891350281706],[103.83143610064366,1.6128315755253237],[103.83049375878721,1.6137344603053039],[103.829757945673,1.6144396397332064],[103.82867932256758,1.6154473712979476],[103.82760562236857,1.6164451980470587],[103.82651900511657,1.617429559906614],[103.8252501753638,1.618541923338782],[103.82323291035296,1.620427723836143],[103.82169559690628,1.621851607980241],[103.81975813248259,1.623634457274859],[103.81956022759668,1.6237071638843565],[103.81944152529194,1.6237507704896934],[103.81603372900626,1.6250536947686496],[103.81113042565984,1.6269600298873952],[103.8107096075406,1.627123797715304],[103.80468132921668,1.629447148146777],[103.80215276516476,1.6304188744735812],[103.79988222032512,1.6312946486951079],[103.79696025502675,1.6324113957490605],[103.79152733349885,1.6295083680599383],[103.79031969466548,1.6350146300577237],[103.78669883398433,1.6364049077698817],[103.78627925453851,1.6365678996998407],[103.78557542395635,1.6368412518320299],[103.7854474760036,1.6368909069734539],[103.78482041143089,1.637134580410147],[103.78073897950493,1.6387455126430757],[103.77751164676575,1.638664127376292],[103.77568063208736,1.6386502614384375],[103.77475725208814,1.6386538048572512],[103.77485835095946,1.6414375702530233],[103.77489855316225,1.6425891142880704],[103.77493510487447,1.6441356509320981],[103.77497468672918,1.6452874842236225],[103.77349092341562,1.6462636595503017],[103.77323687871899,1.6464310470556816],[103.77301251716491,1.647106039334481],[103.77283560087658,1.6476377844700132],[103.77293443916072,1.6492725208421715],[103.77460743493286,1.6506369805036634],[103.7763636948588,1.6520692636428893],[103.77637026371146,1.6528830072132108],[103.77637932684361,1.6539813661318272],[103.77659363356213,1.6542778983209494],[103.77660939062054,1.6546983810315945],[103.77664155807321,1.655562809534522],[103.776419304333,1.6558639598826281],[103.77588536417767,1.656371417373655],[103.77567451131111,1.656650649220792],[103.77501045597877,1.6570327621939862],[103.77471818781501,1.6570198479413762],[103.77365266168724,1.6569731377259347],[103.77334160404993,1.6571544424657614],[103.77212696980305,1.6578622747023544],[103.77169628759572,1.6581130472471253],[103.77089747304977,1.6582401987906739],[103.77017572744597,1.6583550750498488],[103.76936375669816,1.6594370178719593],[103.76792744893118,1.6573402592452964],[103.76753127023552,1.6571372047956099],[103.76689056929999,1.6568088513830619],[103.76556635066764,1.656349912618207],[103.76554300093626,1.6572985456418183],[103.76550983307874,1.6585574601055573],[103.76549632509676,1.6590949489540052],[103.76548741595738,1.6594525380310439],[103.76547453489692,1.6599702185745322],[103.76545211228152,1.660877794931015],[103.76543521831698,1.661558741743003],[103.76542080059883,1.662146133403975],[103.76540451413263,1.662806407205593],[103.76538764051347,1.6634858164011448],[103.76537044839023,1.6641866675889327],[103.76535386791251,1.6648573267811226],[103.7653342174973,1.6656598085577028],[103.76531517446753,1.6664377731841438],[103.76448459880439,1.666556061691674],[103.76354151102012,1.6666905506988963],[103.76296991399704,1.6667713574794234],[103.76252071481326,1.6668349075354105],[103.76192752849369,1.6669182045354642],[103.76176598765021,1.666941017353319],[103.761334674496,1.6670019808716388],[103.7608330538821,1.667073009361767],[103.75978698794385,1.6672207200647045],[103.7596621306626,1.6672383570351115],[103.75847391940503,1.6674072528050439],[103.7571818184769,1.6675900456076957],[103.75588940633187,1.6677729332168696],[103.75480479521717,1.6679267763416321],[103.75371741197682,1.668080619385397],[103.7530243278985,1.6681783862785031],[103.75214195030803,1.6683032814386685],[103.75122260133361,1.6684334473940468],[103.74977294921213,1.668638950786687],[103.74713109317744,1.6690137265703915],[103.74601751018722,1.6691709179271998],[103.74429376086687,1.6694150444814186],[103.74205919207404,1.6697317278996193],[103.73988564502685,1.6701317985296353],[103.73731082699149,1.6686349770423803],[103.73021074900628,1.664504196675206],[103.72482650135142,1.6613744578349847],[103.72289087293507,1.6602077166836333],[103.72385020553759,1.6589466345331296],[103.72638084100168,1.6555160145645698],[103.72749675688287,1.6540036613811309],[103.72839198797377,1.6527899519232787],[103.72927025002609,1.6515997909964053],[103.73014511899547,1.6504130904548884],[103.7310249306122,1.6492217751113452],[103.73191150619309,1.6480211369602153],[103.73313936417932,1.6463573884931173],[103.73317850657021,1.6463041384729165],[103.73422200428699,1.644891072541641],[103.73521493561348,1.6435439427562857],[103.73627291194629,1.6421106917796553],[103.73735492660529,1.6406447568996407],[103.73840181116624,1.6392248625646983],[103.7375931324678,1.6392203619847319],[103.73692532508917,1.6392167912667783],[103.7360223191215,1.6392123450268572],[103.73405409310377,1.6392017404757722],[103.73087178142985,1.6391735639692764],[103.73024284825675,1.639169814969755],[103.7273361578953,1.6391534893209654],[103.72569998750728,1.6391407212092504],[103.72428948504177,1.6391319970587797],[103.72279566683812,1.6380049793413298],[103.72066979258648,1.6363958481773],[103.71992426299241,1.6358470505652527],[103.71899190490645,1.6351394196444295],[103.71827228197036,1.6345985170651605],[103.7176026097519,1.6340742729010231],[103.71695792518214,1.633577057485711],[103.7165786816528,1.6332973664989794],[103.71604497707598,1.6328841451164091],[103.71502166707198,1.6321147384093844],[103.71406247739644,1.6313964199564628],[103.71276198385462,1.6304088089459456],[103.71271418030761,1.6301606176637016],[103.71229825994504,1.6298759088562376],[103.71070364332074,1.6287825868250352],[103.70921754722254,1.6277717158983873],[103.70841777019281,1.6272240433577507],[103.70826916746445,1.6271201285191748],[103.70739908738112,1.626526846924856],[103.70673036692118,1.626068655543113],[103.70598022042843,1.625555235180384],[103.70572556412988,1.6256023270963778],[103.70437852599031,1.624685650985143],[103.70207910543427,1.6231130568838037],[103.70073947279757,1.6221982091719762],[103.69933323961001,1.6212377534441968],[103.69779783861895,1.6201887759974791],[103.69614835759083,1.6190590714323774],[103.69745913474512,1.6173016416697656],[103.69649752374333,1.616768982885159],[103.6982593078718,1.61446331292492],[103.6991968699408,1.61495355649251],[103.701290359357,1.6121367958643027],[103.69991308132842,1.6104996360269006],[103.69738766069015,1.6084545361092457],[103.69293958097154,1.6142565693295234],[103.6889363025796,1.61932179450539],[103.6830863281255,1.614874067348759],[103.68863158675097,1.6074985734242224],[103.68504375433923,1.604889210840751],[103.67632842568949,1.5984441739106756],[103.67143521823765,1.594803987690928],[103.66601362115746,1.5908052729465276],[103.66249029443702,1.5881710057355003],[103.66302081976193,1.5874059911263079],[103.66230000550942,1.5868376688746066],[103.6595736445182,1.5847032023012924],[103.65891539535994,1.58409740949471],[103.65724393528329,1.5863129856465714],[103.65604100598732,1.5875420809327936],[103.65340611112627,1.5897836215557137],[103.65129003006749,1.5915460951073952],[103.65097773528802,1.5919049715957334],[103.65097777130605,1.5919048359396106],[103.65097773533496,1.591904875719473],[103.651104123239,1.591420045027759],[103.65160409960829,1.5892825467978509],[103.6520778610529,1.587313012535325],[103.65218604664884,1.5870217252487853],[103.6528669544497,1.584114815255151],[103.65306824918126,1.5835421373310787],[103.65350475418663,1.582840347029402],[103.65411423278033,1.5821956611996248],[103.65466112777412,1.5818146889956426],[103.65560357600869,1.5814004506746298],[103.65628428451198,1.581031946238227],[103.65677320350414,1.5805548894207937],[103.65724763769097,1.5796921585170531],[103.65770138166661,1.5782136619372593],[103.65876213042347,1.5763416251014808],[103.6592211216015,1.5748691871538176],[103.6601656700673,1.5735407342825698],[103.66118513977258,1.5720962619419503],[103.66179117534561,1.570809949296624],[103.66209201869164,1.5697806945149821],[103.6622390214686,1.5685904046748698],[103.66180950261925,1.5672728192338885],[103.6616735010741,1.5664228660610668],[103.66186368599529,1.5659008530713479],[103.6618781611817,1.5654355818089227],[103.66166449123888,1.564838566598816],[103.66120047338386,1.5641538345134616],[103.66118377495246,1.5627460685953023],[103.65994356517976,1.5573632664188832],[103.65984396353703,1.556639099380412],[103.65985400738819,1.5540529079261496],[103.65985885791532,1.5455001144431726],[103.65752644966622,1.5479908450927085],[103.65749655237062,1.5479921763608926],[103.6563506410694,1.5483318963970385],[103.65468743864564,1.5486729014906078],[103.65421514146341,1.548756993729676],[103.65200937235434,1.5498916544628891],[103.64978262208366,1.5507858266085879],[103.64920426479466,1.5508500585991114],[103.6478687546106,1.5505948860315506],[103.64649372410119,1.5496227844664527],[103.64482554758632,1.548848611280439],[103.64454560196985,1.5485125174976762],[103.64408129396945,1.5480332599146867],[103.64437594055524,1.545999510624906],[103.64424028120555,1.5453741690714407],[103.64381912117747,1.5444889814442186],[103.64302767989803,1.5430075654661208],[103.64272338499963,1.542614825874595],[103.64249956770286,1.542481930176826],[103.64160581330897,1.5422928367368194],[103.64003693156913,1.5424669558807993],[103.6397230882813,1.5422949772801011],[103.63969070943712,1.5421595807137272],[103.63943635059225,1.5411312081702437],[103.63867823742389,1.5403422908175761],[103.6377093101006,1.5413249573312253],[103.63651532930163,1.5417136789119306],[103.63589847545862,1.5424153739993933],[103.63558401818416,1.5425012716959419],[103.6345515552043,1.5426645978422002],[103.63417358249221,1.5427025797975704],[103.63308594834912,1.5424801181111374],[103.6325988727689,1.5430515906874211],[103.6319869369334,1.5435757896689597],[103.63090639337662,1.5441149446258806],[103.63025406947047,1.54469777513463],[103.6300808096299,1.545000469360428],[103.63007807393726,1.5457776613395415],[103.62987367758333,1.5462131243379222],[103.62929720042696,1.5468229156343165],[103.6289932151191,1.5468826649311902],[103.62814326277771,1.546676759786619],[103.62777238082994,1.546714264484875],[103.62762226586317,1.5469114921804767],[103.62757203469712,1.5474685670886212],[103.62778909588991,1.5482183698976173],[103.62838196477699,1.5493168169917704],[103.6282811672229,1.549679064793964],[103.62781997515638,1.5502022816821752],[103.62614105376798,1.5512165992160307],[103.62587931741483,1.5513905972205695],[103.62514837329672,1.5522982818662996],[103.62497483360474,1.5526683778939612],[103.62294239215704,1.5571361804631718],[103.62108282787953,1.558520296795891],[103.6205377744391,1.5588147233478489],[103.61995172330161,1.5594108519538914],[103.61989286544102,1.560279647222638],[103.61899082440088,1.5615719425053842],[103.61623690517895,1.5633186650117432],[103.61438101032893,1.5645738347168134],[103.61336395421745,1.5649637835400214],[103.61095558982277,1.5657398322219684],[103.60948319130773,1.5663357871605084],[103.60852101775374,1.566536343309519],[103.60763068066218,1.56663261056688],[103.60705664075184,1.5665659691409803],[103.60566592034358,1.5659740132282784],[103.60545720551472,1.5661666894634971],[103.60515571798449,1.5668844942914693],[103.60486868278625,1.566987997885885],[103.60357353560927,1.5665070490403437],[103.60246799328203,1.5659724479506798],[103.60141453872025,1.5643935750358708],[103.60130413596093,1.5637700720392038],[103.59713659544406,1.5600223235763808],[103.59400367357566,1.557259313096288],[103.59378632771903,1.5571730485797077],[103.59307418957157,1.557424495107148],[103.58438316941168,1.561812389377566],[103.58384335758937,1.5617366238683608],[103.58290461693002,1.5615049790224176],[103.58109678233126,1.5605927942029665],[103.58087232600963,1.5605440225662386],[103.57962961326989,1.5607241247257118],[103.57936940878795,1.5607585049765171],[103.57907992541497,1.5610537269577371],[103.57883577139218,1.5614599317574656],[103.57881295945299,1.5619335609157086],[103.57887123933244,1.5628317393538986],[103.57882559997863,1.5632685293283326],[103.57846738290158,1.5635751562766467],[103.5780777023038,1.5637438865013553],[103.5776356106397,1.5636979794551122],[103.57676344642887,1.5632539682840259],[103.57637869607085,1.5627728150198898],[103.57572263344218,1.5625896803973005],[103.57515353001732,1.56241428564581],[103.57491306893361,1.5622456024529443],[103.57480793655218,1.562194106280262],[103.57472192227307,1.5619055094271506],[103.57456838689605,1.5613486168670878],[103.57436737695654,1.5608016989093074],[103.57424066020955,1.5605352926499942],[103.57333552953713,1.5600341480475906],[103.57234404820615,1.5595895902304553],[103.57022639684922,1.5591734664718238],[103.56996278713744,1.55911149960749],[103.5676065384602,1.5580730496349025],[103.56624480939901,1.5570992672782433],[103.56467219439551,1.55611085152903],[103.5625261792668,1.5547507903512345],[103.56201380497816,1.5544304268981728],[103.56134389585992,1.553709604545066],[103.5609033516916,1.5531768816648492],[103.56022017625192,1.5523177871167855],[103.55977069516369,1.5521278369004463],[103.55830198192697,1.5520539662800454],[103.55646488088405,1.5515013481282098],[103.55578171021448,1.5512571383225042],[103.55345228448023,1.5494192918691283],[103.55322538044366,1.5489009137847594],[103.5530817110486,1.5481050912363299],[103.55299045892978,1.5479201434310685],[103.55278515087377,1.547301108258516],[103.55247900878248,1.546799707544341],[103.55236278025723,1.5465313835602785],[103.55227213768832,1.545996254789372],[103.5522841863464,1.5451461924308576],[103.55208102656833,1.5441606315050194],[103.55195216601727,1.5436041361939519],[103.55180634093425,1.5430669586279542],[103.5515535468241,1.54206444972669],[103.55148170706292,1.5417182669298335],[103.55123755907096,1.5399725172929866],[103.55126254838802,1.5392483229376586],[103.55121598787655,1.538300347833848],[103.5510877440736,1.5373005014038996],[103.55073475598255,1.5367509046865815],[103.54977907657683,1.5356206108037047],[103.54898185432126,1.5347826069991677],[103.54783718590687,1.5337678798723056],[103.54703995244795,1.5329936234913655],[103.5459350532277,1.5316352743559782],[103.54521181581343,1.5301335823079867],[103.54444789753433,1.5281654417904618],[103.54416306125621,1.5270022463883521],[103.54379836026021,1.5251725896715564],[103.5436392983628,1.5243256084268038],[103.54353635688186,1.5230589610571097],[103.54376417419174,1.523106777418062],[103.54392602728623,1.5231409017481645],[103.5445789711858,1.523196642717487],[103.5457920726811,1.5233411482544974],[103.54627485272712,1.5234080454508618],[103.5463966238551,1.5234250348801746],[103.54717257304175,1.5235097819849515],[103.5483246513816,1.5236356003677112],[103.54845597411439,1.5236499013359508],[103.55024896639247,1.5238690452534474],[103.55204227587835,1.5240779941640104],[103.55222538967047,1.5240962665767164],[103.55402703471806,1.5243023346721698],[103.5562155580848,1.5245919731014517],[103.5563052633856,1.524603271627396],[103.5585511356709,1.5248654404018194],[103.56142990968998,1.525206981321018],[103.56374361359904,1.5254821616883787],[103.56581253324894,1.525733552121793],[103.5676114015898,1.5259222995841246],[103.56941300315611,1.5261376802189004],[103.5712877206788,1.5263462711371103],[103.57272678035022,1.5265129947916833],[103.57414860852047,1.5267057645600708],[103.57575233704489,1.526864977693763],[103.57592528362376,1.5268723759677612],[103.57588488667363,1.524921262176411],[103.57566012153057,1.52352243510751],[103.57565642860995,1.52338003308401],[103.57553092123382,1.5172566963814802],[103.57531692016849,1.5094360593586467],[103.5751195810823,1.5033528806597294],[103.57457078406303,1.4930126398543153],[103.57528043757614,1.4924209193205522],[103.57567628680731,1.492080466117088],[103.57628390822896,1.491443499760043],[103.57648398071576,1.4912334200012087],[103.57731016710979,1.4903674415229264],[103.57750068182116,1.4901685088496894],[103.57756511820392,1.4901014302370335],[103.57796248981167,1.4896867482310194],[103.57893787890832,1.4886686411638819],[103.58008683282628,1.4874827455047261],[103.57977855357207,1.4872073047624048],[103.579403995448,1.4864101134244854],[103.57935159424034,1.4860072154075221],[103.5793099722021,1.4856706667745199],[103.57999805157142,1.4853466156586024],[103.580067711334,1.4848209006480817],[103.58040774623421,1.4845405106018827],[103.58056433214993,1.483568220877493],[103.58029335242017,1.4830358838406807],[103.57989257482578,1.4824577138288837],[103.57988395714425,1.4818095562487323],[103.58003192229077,1.4808370704998113],[103.57973565471319,1.4800924205440857],[103.57956146410451,1.4794995613062762],[103.57955282980518,1.4791404344008217],[103.57938727774489,1.4788951627338607],[103.5795093687492,1.4782030401034236],[103.57849574194982,1.478481920905768],[103.57832156264774,1.4781665528333885],[103.57736310376157,1.4780876855323004],[103.57701504930897,1.4769130237416976],[103.57474981830885,1.4771503821325518],[103.57398713048173,1.4779731263305507],[103.57295039126689,1.4781220939516968],[103.57224473630703,1.4787091055152837],[103.57133006565681,1.4787615995977772],[103.57071166344535,1.4785337814817734],[103.57003221026386,1.478551305469937],[103.56956546734368,1.4784293317214892],[103.56895568228586,1.4778686437330006],[103.56854629957341,1.4777372791010792],[103.56789274765241,1.4785694991212481],[103.56751817305552,1.4783241158884834],[103.56716120180643,1.4786570879916998],[103.56692597820218,1.4783680325306188],[103.56641176024337,1.4786834211199889],[103.56579334035821,1.4791214413990776],[103.56588059789834,1.4796557964727526],[103.56500013448151,1.4795580244023125],[103.56441287610974,1.4804996025701704],[103.56415976129392,1.4804355265258144],[103.56393564012265,1.4797686031598023],[103.56364308207763,1.4791883721068064],[103.56221328711248,1.4784608102689814],[103.56125454559402,1.4779981985150132],[103.56061700645246,1.4775824887677624],[103.56009016347653,1.477000401238828],[103.55977232409691,1.4760827642168566],[103.55921185731643,1.4759288154048478],[103.55891468214054,1.4754568478392838],[103.55901363867864,1.4751068168483472],[103.55931884652507,1.47489102667014],[103.55951708473616,1.4745008572865976],[103.55931853971511,1.474126919305164],[103.55891407991591,1.4739928619978253],[103.55881512502191,1.473079956877482],[103.558418377154,1.4722740045977871],[103.55801422660262,1.471973896002407],[103.55711436343594,1.4721568698283538],[103.55661831897102,1.4718799785855508],[103.55641209512953,1.4712800833219453],[103.55451247190805,1.4708401380016092],[103.55391781135324,1.4694781383142026],[103.55491724084396,1.4691321491319804],[103.55521473136282,1.468716171014201],[103.55461914650061,1.467677140403538],[103.5547187383753,1.4663372426768484],[103.55401676376901,1.465875345787634],[103.55231537509404,1.466775167224991],[103.55211716156205,1.4659903795649323],[103.5526131958997,1.4646513683390763],[103.55166245998186,1.4621471058198214],[103.55346343033956,1.4600430555227504],[103.55295294141277,1.4572124095275574],[103.55260736156276,1.4562104367376025],[103.55088537123227,1.4490400789110132],[103.54871206828649,1.4424826337501038],[103.54820685629907,1.4333357119366046],[103.54558320339399,1.4248003291530646],[103.54254675594063,1.4175260273116002],[103.53923171285228,1.406558858238493],[103.5388837185494,1.4038185988445657],[103.53872437556704,1.399319578338585],[103.5352318142566,1.3876445812021294],[103.53698344810468,1.3809434648108536],[103.53912817780024,1.372738416497811],[103.54119977158177,1.3648130660314794],[103.54147146601049,1.3541080500007814],[103.54389478636746,1.3507400379778052],[103.54673511440636,1.34679242832114],[103.55470219833065,1.3400373987509695],[103.55470217677298,1.3400373788414572],[103.55530820822521,1.339528447790027],[103.55530824418747,1.3395284170568298],[103.58142717406396,1.3137803470731713],[103.60754544528042,1.2880318214880526],[103.61444994387188,1.3140524508871747],[103.61536641863623,1.3151634358859454],[103.6161165485197,1.3213577322306074],[103.62833740747693,1.340801466323794],[103.62833743621022,1.3408015169883414],[103.63383681619882,1.3517732197091858],[103.63591991611587,1.3571341128507153],[103.63916951380433,1.3627172948744852],[103.64449362166843,1.373580216849405],[103.64747415794041,1.3796609852624329],[103.65125161796743,1.3868273224645196],[103.65177921920629,1.3910216216200644],[103.65177924614245,1.3910216740928583],[103.65544551224839,1.4001600846140043],[103.66219488816206,1.410215233134936],[103.66219491151485,1.4102152620895139],[103.66772211566061,1.4154927302597495],[103.67216613380283,1.4278810227740097],[103.68160964554083,1.4369916447919182],[103.69233067046093,1.4396302784351167],[103.69513642716741,1.441625147491198],[103.69713594947386,1.4430467836619902],[103.69713597821412,1.443046825281693],[103.70202442879913,1.4505185568675816],[103.70716238609,1.4538383972009326],[103.71238450563183,1.4572125966854477],[103.72148868424382,1.458919623324436],[103.72148871300084,1.4589196287642558],[103.72660523240106,1.4598789537953774],[103.73051704124963,1.457993918213067],[103.73807613262197,1.45435128326769],[103.74504778891236,1.4501291856257401],[103.75896292094713,1.4481290531494968],[103.76443767057968,1.450435794099807],[103.76938953414377,1.452522202894045],[103.7788493469131,1.4585631555882712],[103.78873792563073,1.4648778360164396],[103.78989530908198,1.4658746659000708],[103.8019309946078,1.4762380693404549],[103.80193103055032,1.4762380874451042],[103.81092990896444,1.4782099885579685],[103.81092994671181,1.4782099885732172],[103.82042905938214,1.4764322444578395],[103.83242781177114,1.4727377728216626],[103.8324278459284,1.472737760172075],[103.85025937169327,1.4659045815071499],[103.85692547925666,1.4626824275027273],[103.8632301539379,1.4585992941964123],[103.86642453022597,1.4562660760208854],[103.87328482239386,1.4487109437721568],[103.88439471186284,1.4348783225887203],[103.88439473883327,1.4348782990815419],[103.89611581067088,1.4276842259940237],[103.91100320332905,1.4272674174921893],[103.91291691576569,1.4268638196936874],[103.91508616058154,1.426406327072282],[103.92158572917062,1.4279894912934938],[103.92158575792753,1.4279894985394983],[103.93166785795157,1.4301558750372023],[103.9359451648001,1.4302113421767544],[103.9407781725674,1.4275725404602204],[103.94077820492535,1.4275725296171067],[103.94295872129335,1.427033419938864],[103.9507772139087,1.4251003606340875],[103.95349205156384,1.4245903347357731],[103.95351916074821,1.4245852423330092],[103.95580438322703,1.4241559225272922],[103.95707594915724,1.4242921543024731],[103.9570940651381,1.4242940941175242],[103.95891522019492,1.4244892032121315],[103.95891525075763,1.424489185132108],[103.96505343831524,1.4219060276488955],[103.97066425993835,1.421683742265652],[103.97507405049335,1.423137325352857],[103.97507409183036,1.4231373398382232],[103.97816344482554,1.4241556869135794],[103.98024351173379,1.4240768555881205],[103.98182970543628,1.424016740072507],[103.98441285140119,1.4246555024032304],[103.98727359788869,1.4245166014823636],[103.99116219640469,1.4247387261847713],[103.99349527031858,1.4234332149071727],[103.99349531526184,1.423433193213118],[103.9965339574261,1.4222021846529864],[104.00110565986742,1.4203500994810667],[104.00528154015339,1.4241345051762837],[104.02154810559863,1.4388759586809345],[104.02540951225673,1.440146443901414],[104.02548662738872,1.440171816673159],[104.02789717628242,1.4409649511999296],[104.02571897949403,1.4504251190530084],[104.025227253954,1.4639191375001013],[104.02521372042798,1.4677875381468866],[104.02521367908598,1.4677875363254413],[104.025169016319,1.4805125048968795],[104.0251678989676,1.48083764412105],[104.02516806253959,1.4808376495971802],[104.02515825091133,1.483642005908532],[104.0221592454124,1.5056350412854218],[104.02036200737976,1.5293741015455964],[104.0197403320454,1.5503392998721608],[104.0097594602347,1.5709120121591287],[103.99366503350919,1.5876700668415866],[103.97905483464619,1.5996726284980052],[103.97175210049264,1.616326601964574],[103.97272928194724,1.6324891473375753],[103.97394913295696,1.6425293033372894],[103.96949678140454,1.643468027543814],[103.95953402629232,1.645568551460653],[103.95815965468744,1.6458299163546068],[103.95668027195937,1.646688933796402],[103.95554268574219,1.6485782529537492],[103.95486007548246,1.6500095526199767],[103.95275461070459,1.6513839297598636],[103.9449226095693,1.6524282781261628],[103.94101197388632,1.6536243311074323],[103.93867881329336,1.6541972722847467],[103.93623179882748,1.6543121942604004],[103.935297641146,1.6543623503657316],[103.9345780845871,1.654386617735915],[103.93377305731377,1.6542984538902648],[103.93201078435965,1.6543146667511894],[103.93081157554553,1.6547975144312626],[103.93004363098866,1.6550873388604515],[103.92953748630401,1.6555712948482766],[103.92867373151381,1.6562285841855682],[103.92783095275014,1.6569282837402801],[103.92736736639402,1.6575219634466536],[103.9271741831738,1.658233334823136],[103.92703928321343,1.6590289542970447],[103.92692069612006,1.659568332905756],[103.92711050950307,1.6607130088196707],[103.92783035499285,1.662162772875522],[103.92850545040717,1.6631716574314157],[103.9286985150713,1.66363739574644],[103.92843837642359,1.6639576877332034],[103.92738499261776,1.6645924092849886],[103.92700588490861,1.6650800616008972],[103.92668993908754,1.6654617749911285],[103.92599450792623,1.6660766231215345],[103.92503395077411,1.666880511462628],[103.92489062454874,1.667049400901953],[103.92469116434674,1.667197119534493],[103.92448155507037,1.6673379096611352],[103.92419822557183,1.667482134350812],[103.92399907671464,1.6674998537812122],[103.92378386876273,1.6674880462409176],[103.92345332338132,1.6672718735581349],[103.9232134094342,1.6669891938129968],[103.92311440167627,1.6667398334675567],[103.92302337941045,1.666340765711769],[103.92292404252494,1.6659583288760478],[103.92286600054766,1.6656257141925082],[103.92278334412683,1.6653928976127155],[103.92253569611859,1.6649737739254011],[103.92218598998382,1.6645417284444515],[103.92187114375369,1.6642450799287751],[103.92163280408343,1.6640886497119616],[103.92142710806228,1.6638150215330199],[103.92107867490277,1.6635425926942946],[103.92085791358356,1.6634408785805317],[103.92057889866678,1.6634215496782465],[103.92032175952798,1.6634024202654945],[103.92006772968946,1.6634876176538538],[103.9198041373291,1.6636055040741033],[103.91952547167102,1.6637893452940176],[103.91938336833114,1.6639511217142477],[103.91920829712349,1.6641957698955863],[103.91911737558223,1.6643973700166463],[103.91910819891451,1.6647182312280204],[103.9191418247201,1.664896126979386],[103.91931110457635,1.6650484933985155],[103.9195722809919,1.6652481041020895],[103.91974190034956,1.6655037398724275],[103.91990688958325,1.6657524508929484],[103.9200583366577,1.666063560768141],[103.92024583167861,1.6663514141242],[103.92040618429493,1.6665556054774375],[103.92047036767141,1.6668137996473211],[103.92052403599305,1.6669760292203761],[103.92052407176948,1.6671916996621419],[103.92043377919383,1.6673733973178295],[103.92034253242045,1.6674259619153369],[103.92027192644096,1.6674685318176743],[103.9200083340192,1.6674570919734815],[103.91971419502849,1.66739592957233],[103.91941698371703,1.6673760169365195],[103.91917958826357,1.667366125772089],[103.91903066568408,1.6673755917643198],[103.91882810988317,1.6674351338031272],[103.9187677193269,1.6675410733643357],[103.91864445543781,1.6679475651182483],[103.91849777069174,1.6682743380150864],[103.91835105837679,1.668490341460638],[103.91813372036782,1.6686054564309103],[103.91790219418372,1.6686721046895454],[103.91764968025059,1.6686721104699755],[103.91740704813566,1.6686823117188567],[103.91714221114655,1.6686823130329838],[103.91689248896844,1.668682417397128],[103.91673277907746,1.6687359179430268],[103.91648308693797,1.6689004415605915],[103.91624665045518,1.6691881437058642],[103.9160749708817,1.6693708703078602],[103.91592578378194,1.669558700928007],[103.91587185524821,1.669757334671355],[103.91586264246574,1.6699905021723493],[103.91592804572049,1.670244273883471],[103.91600576855403,1.6703909365883722],[103.91608782082854,1.670576541632365],[103.91614055230762,1.6706929052949604],[103.91618868175765,1.6708499411371613],[103.91614893653804,1.6710495405465227],[103.9160219409214,1.671163052230679],[103.91589739157135,1.6711910853444136],[103.91577345569452,1.6711770989379544],[103.91563746662494,1.6710861853993655],[103.91560198331567,1.670895115700956],[103.91555632970447,1.670757312338493],[103.91548139000925,1.6706402659481923],[103.91538056445255,1.6705823450802528],[103.91519187341397,1.6706070862950055],[103.91502973084684,1.6707069309004077],[103.9148447610365,1.6708635938055008],[103.91472024376283,1.6709889336099701],[103.91455592590395,1.671099067054176],[103.91436570520597,1.6711840947710956],[103.91410058705556,1.6712866900503864],[103.91389556470243,1.6713653663949986],[103.91375159978949,1.6714559878324602],[103.91362554242652,1.6716099799504611],[103.91356605010043,1.6717468808985132],[103.91356610862793,1.6720178401607138],[103.91359820416282,1.6722009273147955],[103.91353412419052,1.672459365084008],[103.91349284054124,1.6726874268717404],[103.91341672008437,1.6728991281060173],[103.91331285071881,1.67298899326721],[103.91315840298435,1.6730149007232065],[103.91294780748652,1.6729926121907517],[103.91275632990154,1.6729360063151142],[103.91260802214688,1.6728327796153435],[103.91247665881122,1.6727006184251514],[103.91234840849282,1.672666244487049],[103.91199230062016,1.672596695528653],[103.91181563574149,1.6725862464037846],[103.91161675775598,1.6725230022962023],[103.91140803454346,1.6724731196021945],[103.91127545875968,1.6724446106605861],[103.91115581792849,1.6724445675551256],[103.91104574820854,1.6724538551568244],[103.910974860327,1.6724742135551516],[103.91083919092394,1.6724856066530118],[103.91069769959381,1.6724746907163024],[103.91057558342837,1.6724542627357901],[103.91047106086137,1.672444704209743],[103.91036223482463,1.6724447626417969],[103.91028301386311,1.6724624261984293],[103.91013409911073,1.6725092946174644],[103.91000463231917,1.6725895354592422],[103.90990966976422,1.6726254625294297],[103.90978387986381,1.672648398804772],[103.90968059605761,1.672648457389523],[103.90960783475137,1.6726391997265624],[103.90952305196701,1.6726562841678083]]]},"properties":{"OBJECTID":78,"FCD":"DA0085","FNM":"District or Jajahan Coverage Administrative","NAM":"JOHOR BAHRU","KOD_NEGERI":"01","KOD_DAERAH":"02","ARM":"1108173087.89721","BA5":null,"PPM":null,"Sumber":"JUPEM","Tahun_Kemaskini":"OGOS 2019","Tahun_Terima":"2019"}}]}