{
"type": "FeatureCollection",
"name": "Step3C_Historical_Flood_Zones_RGB_WGS84",
"crs": { "type": "name", "properties": { "name": "urn:ogc:def:crs:OGC:1.3:CRS84" } },
"features": [
{ "type": "Feature", "properties": { "zone_id": "F01", "canonical_location": "Kampung Kangkar Tebrau", "location_type": "COMMUNITY", "grid_id_500m": "JB0500_R0055_C0049", "years": "2015;2023;2025", "core_year_overlap_n": 2, "official_2025_policy_hotspot": true, "geometry_method": "OSM_NAMED_RESIDENTIAL_POLYGON", "geometry_confidence": "HIGH", "geometry_is_proxy": false, "geometry_source_feature": "name=Kampung Kangkar Tebrau; osm_way_id=657910839", "road_segment_count": 0, "road_centerline_length_m": 0.0, "reference_lon": 103.75660417305872, "reference_lat": 1.531815, "final_class": "SEVERE", "class_cn": "严重洪涝区域", "fill_hex": "#FF0000", "fill_opacity": 0.3, "outline_hex": "#B30000", "classification_rule_version": "STEP3B_RULE_v0.1", "classification_rationale": "High-consequence historical evidence: EVACUATION_OR_TRAPPED_VEHICLE", "d09_used": "False", "area_km2": 0.3701976505391244, "centroid_x": 21669.728221721994, "centroid_y": -56520.479222963892, "centroid_lon": 103.75660500041022, "centroid_lat": 1.5318150269934143, "lon_min": 103.7515001, "lat_min": 1.528664, "lon_max": 103.7602739, "lat_max": 1.5348636 }, "geometry": { "type": "MultiPolygon", "coordinates": [ [ [ [ 103.7572469, 1.5348636 ], [ 103.7602739, 1.5317088 ], [ 103.7577665, 1.5298698 ], [ 103.7563327, 1.5291569 ], [ 103.7546713, 1.528675299999989 ], [ 103.7530933, 1.528664 ], [ 103.7515001, 1.5292593 ], [ 103.7518415, 1.5314017 ], [ 103.7524902, 1.531542 ], [ 103.7532488, 1.5319212 ], [ 103.7562758, 1.534109100000015 ], [ 103.7572469, 1.5348636 ] ] ] ] } },
{ "type": "Feature", "properties": { "zone_id": "F02", "canonical_location": "Kampung Laut Skudai", "location_type": "COMMUNITY", "grid_id_500m": "JB0500_R0058_C0028", "years": "2020;2022;2025", "core_year_overlap_n": 2, "official_2025_policy_hotspot": true, "geometry_method": "FROZEN_500M_GRID_SUPPORT", "geometry_confidence": "LOW", "geometry_is_proxy": true, "geometry_source_feature": "JB0500_R0058_C0028", "road_segment_count": 0, "road_centerline_length_m": 0.0, "reference_lon": 103.6605, "reference_lat": 1.5453, "final_class": "SEVERE", "class_cn": "严重洪涝区域", "fill_hex": "#FF0000", "fill_opacity": 0.3, "outline_hex": "#B30000", "classification_rule_version": "STEP3B_RULE_v0.1", "classification_rationale": "High-consequence historical evidence: EVACUATION_OR_TRAPPED_VEHICLE", "d09_used": "False", "area_km2": 0.25, "centroid_x": 11250.0, "centroid_y": -54750.0, "centroid_lon": 103.66212707134802, "centroid_lat": 1.547322835379163, "lon_min": 103.65988022403945, "lat_min": 1.5450616968603801, "lon_max": 103.66437392377604, "lat_max": 1.5495839721852944 }, "geometry": { "type": "MultiPolygon", "coordinates": [ [ [ [ 103.664373423103314, 1.54506169686038 ], [ 103.66437392377604, 1.549583472378284 ], [ 103.659880715197716, 1.549583972185294 ], [ 103.659880224039455, 1.545062195208244 ], [ 103.664373423103314, 1.54506169686038 ] ] ] ] } },
{ "type": "Feature", "properties": { "zone_id": "F03", "canonical_location": "Kampung Pasir Tebrau", "location_type": "COMMUNITY", "grid_id_500m": "JB0500_R0057_C0046", "years": "2022;2023;2025", "core_year_overlap_n": 3, "official_2025_policy_hotspot": true, "geometry_method": "OSM_RESIDENTIAL_POLYGON_CONTAINING_OFFICIAL_POINT", "geometry_confidence": "MEDIUM", "geometry_is_proxy": true, "geometry_source_feature": "name=None; osm_way_id=564100506", "road_segment_count": 0, "road_centerline_length_m": 0.0, "reference_lon": 103.74288131, "reference_lat": 1.54457461, "final_class": "SEVERE", "class_cn": "严重洪涝区域", "fill_hex": "#FF0000", "fill_opacity": 0.3, "outline_hex": "#B30000", "classification_rule_version": "STEP3B_RULE_v0.1", "classification_rationale": "High-consequence historical evidence: EVACUATION_OR_TRAPPED_VEHICLE", "d09_used": "False", "area_km2": 0.056017885818498848, "centroid_x": 20194.417807321788, "centroid_y": -54960.154220251869, "centroid_lon": 103.74272496748924, "centroid_lat": 1.5453553027415441, "lon_min": 103.7403003, "lat_min": 1.5434473, "lon_max": 103.7445698, "lat_max": 1.5474384 }, "geometry": { "type": "MultiPolygon", "coordinates": [ [ [ [ 103.7443594, 1.5434473 ], [ 103.7430406, 1.5439141 ], [ 103.743168899999986, 1.5443142 ], [ 103.7423743, 1.5446124 ], [ 103.7424072, 1.545156 ], [ 103.74173660000001, 1.5455548 ], [ 103.7415368, 1.545698299999985 ], [ 103.7412974, 1.5459476 ], [ 103.741166, 1.545776 ], [ 103.7410654, 1.545898 ], [ 103.7411633, 1.5460106 ], [ 103.741162, 1.546071 ], [ 103.74082, 1.5464624 ], [ 103.740714, 1.5465509 ], [ 103.7407342, 1.546607199999979 ], [ 103.7407194, 1.546691700000017 ], [ 103.7404132, 1.547048399999987 ], [ 103.7403003, 1.5472382 ], [ 103.7405813, 1.5474384 ], [ 103.7422322, 1.546411499999981 ], [ 103.742589, 1.5460994 ], [ 103.7429431, 1.545714600000012 ], [ 103.7437129, 1.545078500000012 ], [ 103.74399, 1.5449349 ], [ 103.743641, 1.5444117 ], [ 103.7445698, 1.544037200000012 ], [ 103.7443594, 1.5434473 ] ] ] ] } },
{ "type": "Feature", "properties": { "zone_id": "F04", "canonical_location": "Kampung Paya Kenangan", "location_type": "COMMUNITY", "grid_id_500m": "JB0500_R0056_C0047", "years": "2022;2023;2025", "core_year_overlap_n": 3, "official_2025_policy_hotspot": true, "geometry_method": "OSM_RESIDENTIAL_POLYGON_CONTAINING_OFFICIAL_POINT", "geometry_confidence": "MEDIUM", "geometry_is_proxy": true, "geometry_source_feature": "name=None; osm_way_id=408116848", "road_segment_count": 0, "road_centerline_length_m": 0.0, "reference_lon": 103.74961954, "reference_lat": 1.5403203, "final_class": "SEVERE", "class_cn": "严重洪涝区域", "fill_hex": "#FF0000", "fill_opacity": 0.3, "outline_hex": "#B30000", "classification_rule_version": "STEP3B_RULE_v0.1", "classification_rationale": "High-consequence historical evidence: EVACUATION_OR_TRAPPED_VEHICLE", "d09_used": "False", "area_km2": 0.04807823092889299, "centroid_x": 21032.917599620887, "centroid_y": -55530.665623303328, "centroid_lon": 103.7496674513405, "centroid_lat": 1.5406512122586555, "lon_min": 103.74858, "lat_min": 1.5393701, "lon_max": 103.752449, "lat_max": 1.5415414 }, "geometry": { "type": "MultiPolygon", "coordinates": [ [ [ [ 103.74858, 1.5404475 ], [ 103.7492183, 1.541541399999988 ], [ 103.7502555, 1.540855 ], [ 103.752449, 1.5396792 ], [ 103.7520616, 1.5393701 ], [ 103.7516413, 1.5396141 ], [ 103.751094200000011, 1.5398224 ], [ 103.7508727, 1.5398519 ], [ 103.7506604, 1.539789400000012 ], [ 103.7503256, 1.539523599999988 ], [ 103.7499218, 1.5395359 ], [ 103.7494789, 1.539431799999983 ], [ 103.7492183, 1.539431799999983 ], [ 103.7487884, 1.5398094 ], [ 103.74858, 1.5404475 ] ] ] ] } },
{ "type": "Feature", "properties": { "zone_id": "F05", "canonical_location": "Jalan Ayer Molek", "location_type": "ROAD", "grid_id_500m": "JB0500_R0039_C0049", "years": "2022;2023", "core_year_overlap_n": 2, "official_2025_policy_hotspot": true, "geometry_method": "OSM_NAMED_ROAD_CORRIDOR_WITHIN_FROZEN_500M_GRID", "geometry_confidence": "MEDIUM", "geometry_is_proxy": true, "geometry_source_feature": "10 named OSM road segments; aliases=Jalan Ayer Molek", "road_segment_count": 10, "road_centerline_length_m": 574.318979603819, "reference_lon": 103.7587117, "reference_lat": 1.4594963, "final_class": "SEVERE", "class_cn": "严重洪涝区域", "fill_hex": "#FF0000", "fill_opacity": 0.3, "outline_hex": "#B30000", "classification_rule_version": "STEP3B_RULE_v0.1", "classification_rationale": "High-consequence historical evidence: EVACUATION_OR_TRAPPED_VEHICLE", "d09_used": "False", "area_km2": 0.0070066426220302559, "centroid_x": 21809.862316356044, "centroid_y": -64236.205325508432, "centroid_lon": 103.75711077366614, "centroid_lat": 1.4614107999448969, "lon_min": 103.75530390052958, "lat_min": 1.4594562126169588, "lon_max": 103.75871775295224, "lat_max": 1.4634111576846043 }, "geometry": { "type": "MultiPolygon", "coordinates": [ [ [ [ 103.758256914904649, 1.460042315419067 ], [ 103.757652314899886, 1.460711515408338 ], [ 103.7576947, 1.4607503 ], [ 103.757651923735537, 1.460711952832015 ], [ 103.757514023734345, 1.460867752829556 ], [ 103.7575568, 1.4609061 ], [ 103.757514010400101, 1.460867767899949 ], [ 103.757067398626972, 1.461372707318285 ], [ 103.756639486635294, 1.461867474300671 ], [ 103.756504004589218, 1.462016006452028 ], [ 103.756377510499817, 1.462154599972787 ], [ 103.7564197, 1.462193600000011 ], [ 103.7563774960892, 1.462154615767703 ], [ 103.755878900375933, 1.462701311054462 ], [ 103.755475907831951, 1.463142983675954 ], [ 103.755459713308454, 1.463160363164153 ], [ 103.7555015, 1.463199799999983 ], [ 103.755459000530834, 1.463161142316991 ], [ 103.755303900529583, 1.46333384231425 ], [ 103.75538889947201, 1.463411157684604 ], [ 103.755543646637662, 1.46323885055276 ], [ 103.755559686693033, 1.463221636834404 ], [ 103.7555179, 1.4631822 ], [ 103.755560095337202, 1.463221193654953 ], [ 103.755963295334197, 1.462779293647765 ], [ 103.7559211, 1.462740299999989 ], [ 103.755963303916118, 1.462779284240032 ], [ 103.756461896708529, 1.462232592130009 ], [ 103.756588389500834, 1.462094000023831 ], [ 103.7565462, 1.462055 ], [ 103.756588401322148, 1.462093987067808 ], [ 103.756724401321151, 1.461944887065388 ], [ 103.7566822, 1.4619059 ], [ 103.75672541048948, 1.461943750906872 ], [ 103.757153401374609, 1.461448892680541 ], [ 103.757599582935626, 1.460944439635333 ], [ 103.757737281793055, 1.460788866883269 ], [ 103.758341685096966, 1.460119884579765 ], [ 103.7582993, 1.4600811 ], [ 103.758331005105475, 1.460109860407915 ], [ 103.758638194848501, 1.459766875671604 ], [ 103.758711974300638, 1.459630129268981 ], [ 103.758717752952236, 1.459612852582011 ], [ 103.758717731230661, 1.45946419188 ], [ 103.758675790339709, 1.459456212616959 ], [ 103.758670306508279, 1.459485406576014 ], [ 103.758633425700012, 1.459595670730193 ], [ 103.758568005152355, 1.459716924327671 ], [ 103.758267718652291, 1.460052201413931 ], [ 103.758256914904649, 1.460042315419067 ] ] ] ] } },
{ "type": "Feature", "properties": { "zone_id": "F06", "canonical_location": "Kampung Mohd Amin", "location_type": "COMMUNITY", "grid_id_500m": "JB0500_R0040_C0044", "years": "2022;2023", "core_year_overlap_n": 2, "official_2025_policy_hotspot": true, "geometry_method": "OSM_NAMED_RESIDENTIAL_POLYGON", "geometry_confidence": "HIGH", "geometry_is_proxy": false, "geometry_source_feature": "name=Kampung Mohd Amin; osm_way_id=None", "road_segment_count": 0, "road_centerline_length_m": 0.0, "reference_lon": 103.7354126, "reference_lat": 1.4673637, "final_class": "RECURRENT", "class_cn": "经常内涝区域", "fill_hex": "#FFD700", "fill_opacity": 0.3, "outline_hex": "#B38F00", "classification_rule_version": "STEP3B_RULE_v0.1", "classification_rationale": "Observed in at least two of the 2022/2023/2025 core years, without a Step 3B severe trigger.", "d09_used": "False", "area_km2": 0.19206221205462781, "centroid_x": 19432.361102276653, "centroid_y": -63909.135638340871, "centroid_lon": 103.73532658653153, "centroid_lat": 1.4639665990370525, "lon_min": 103.7322492, "lat_min": 1.460748, "lon_max": 103.7389546, "lat_max": 1.4674295 }, "geometry": { "type": "MultiPolygon", "coordinates": [ [ [ [ 103.732249200000012, 1.4664031 ], [ 103.7323499, 1.4664277 ], [ 103.7325175, 1.4665106 ], [ 103.7327205, 1.4665472 ], [ 103.7325507, 1.4668475 ], [ 103.7337852, 1.4670973 ], [ 103.7351753, 1.467383899999979 ], [ 103.7353997, 1.4674295 ], [ 103.7355981, 1.467338400000016 ], [ 103.7359201, 1.4674002 ], [ 103.7360112, 1.4663728 ], [ 103.736512, 1.4648056 ], [ 103.7366161, 1.4645781 ], [ 103.737247100000019, 1.4634401 ], [ 103.7376146, 1.463076 ], [ 103.7380602, 1.4626988 ], [ 103.7389546, 1.4621233 ], [ 103.7386293, 1.46092680000001 ], [ 103.7385968, 1.460748 ], [ 103.7376211, 1.4610764 ], [ 103.7373804, 1.4611934 ], [ 103.7373414, 1.461304 ], [ 103.7368828, 1.4618437 ], [ 103.7360404, 1.4630402 ], [ 103.7358713, 1.4632223 ], [ 103.7355753, 1.463388099999982 ], [ 103.7353835, 1.463381599999983 ], [ 103.7345574, 1.463271 ], [ 103.7344565, 1.463723 ], [ 103.734115, 1.4636417 ], [ 103.7340435, 1.463833500000018 ], [ 103.7337085, 1.4638075 ], [ 103.733689, 1.4641001 ], [ 103.7337703, 1.4648479 ], [ 103.7337376, 1.4649809 ], [ 103.7348829, 1.4652732 ], [ 103.734787700000012, 1.4655909 ], [ 103.7336008, 1.4652786 ], [ 103.7334613, 1.4655437 ], [ 103.7332889, 1.4657323 ], [ 103.7331198, 1.4658266 ], [ 103.732671, 1.466119200000012 ], [ 103.7324498, 1.466249199999985 ], [ 103.732249200000012, 1.4664031 ] ] ] ] } },
{ "type": "Feature", "properties": { "zone_id": "F07", "canonical_location": "Jalan Kolam Ayer", "location_type": "ROAD", "grid_id_500m": "JB0500_R0044_C0041", "years": "2022;2023", "core_year_overlap_n": 2, "official_2025_policy_hotspot": true, "geometry_method": "OSM_NAMED_ROAD_CORRIDOR_WITHIN_FROZEN_500M_GRID", "geometry_confidence": "MEDIUM", "geometry_is_proxy": true, "geometry_source_feature": "3 named OSM road segments; aliases=Jalan Kolam Ayer;Jalan Kolam Air", "road_segment_count": 3, "road_centerline_length_m": 478.35879007599073, "reference_lon": 103.7220526, "reference_lat": 1.4823854, "final_class": "SEVERE", "class_cn": "严重洪涝区域", "fill_hex": "#FF0000", "fill_opacity": 0.3, "outline_hex": "#B30000", "classification_rule_version": "STEP3B_RULE_v0.1", "classification_rationale": "Explicit 6 Dec 2023 road-closure evidence for part of Jalan Kolam Ayer.", "d09_used": "False", "area_km2": 0.0047305305618403791, "centroid_x": 17758.9138841356, "centroid_y": -61823.35629665343, "centroid_lon": 103.72012840007844, "centroid_lat": 1.4836733650895553, "lon_min": 103.71885702808687, "lat_min": 1.4822275075948128, "lon_max": 103.72211296233358, "lat_max": 1.4845795625740714 }, "geometry": { "type": "MultiPolygon", "coordinates": [ [ [ [ 103.722112962333583, 1.482421245064027 ], [ 103.722093528482148, 1.482366275030407 ], [ 103.722052941928624, 1.482296170985646 ], [ 103.722021766611391, 1.482227507594813 ], [ 103.72194003338798, 1.482265092404541 ], [ 103.721973058070688, 1.482337829013774 ], [ 103.722011671517166, 1.48240452496898 ], [ 103.7220202376663, 1.482428754935017 ], [ 103.722016925304146, 1.482446948205671 ], [ 103.722016308400498, 1.48244813971099 ], [ 103.722015306298161, 1.482446733468623 ], [ 103.721984207047086, 1.482414780512921 ], [ 103.721939713066675, 1.482384574740388 ], [ 103.721879637233314, 1.482364851730822 ], [ 103.721803522991848, 1.482344148656898 ], [ 103.721780077007864, 1.482431451343132 ], [ 103.72185396276636, 1.482451548269197 ], [ 103.721899886932732, 1.482466625259589 ], [ 103.72192639295217, 1.482484619486865 ], [ 103.721931106071551, 1.48248946198611 ], [ 103.721825470613084, 1.482529019091927 ], [ 103.721579750682494, 1.482613887445519 ], [ 103.72087194881955, 1.483096635309722 ], [ 103.719333948639431, 1.48417556527144 ], [ 103.719006699869155, 1.484396167790338 ], [ 103.718857028086873, 1.484506637425435 ], [ 103.718910171914089, 1.484579562574071 ], [ 103.719058300131834, 1.484470232209184 ], [ 103.719384651361509, 1.484250234728086 ], [ 103.720922851181427, 1.48317116468978 ], [ 103.721620249318406, 1.482695512554135 ], [ 103.721855729387656, 1.482614180907849 ], [ 103.72202076882968, 1.482552378903259 ], [ 103.7220051, 1.48251 ], [ 103.722021192426652, 1.482552217829445 ], [ 103.722074381926646, 1.48253168354481 ], [ 103.722102874696461, 1.482476651793356 ], [ 103.722112962333583, 1.482421245064027 ] ] ] ] } },
{ "type": "Feature", "properties": { "zone_id": "F08", "canonical_location": "Kampung Belantik", "location_type": "COMMUNITY", "grid_id_500m": "JB0500_R0051_C0051", "years": "2012;2022;2025", "core_year_overlap_n": 2, "official_2025_policy_hotspot": false, "geometry_method": "FROZEN_500M_GRID_SUPPORT", "geometry_confidence": "LOW", "geometry_is_proxy": true, "geometry_source_feature": "JB0500_R0051_C0051", "road_segment_count": 0, "road_centerline_length_m": 0.0, "reference_lon": 103.76650814, "reference_lat": 1.51378258, "final_class": "SEVERE", "class_cn": "严重洪涝区域", "fill_hex": "#FF0000", "fill_opacity": 0.3, "outline_hex": "#B30000", "classification_rule_version": "STEP3B_RULE_v0.1", "classification_rationale": "Long-term recurrent flooding; reported ~1 m water depth and ~70 of >100 houses affected.", "d09_used": "False", "area_km2": 0.25, "centroid_x": 22750.0, "centroid_y": -58250.0, "centroid_lon": 103.76546580653934, "centroid_lat": 1.5156566722251235, "lon_min": 103.76321889015439, "lat_min": 1.5133954509486975, "lon_max": 103.76771272810596, "lat_max": 1.5179178921607714 }, "geometry": { "type": "MultiPolygon", "coordinates": [ [ [ [ 103.767712023340081, 1.513395450948698 ], [ 103.767712728105963, 1.517917186522223 ], [ 103.763219585601036, 1.517917892160771 ], [ 103.763218890154391, 1.513396154484274 ], [ 103.767712023340081, 1.513395450948698 ] ] ] ] } },
{ "type": "Feature", "properties": { "zone_id": "F09", "canonical_location": "Jalan Stulang Darat", "location_type": "ROAD", "grid_id_500m": "JB0500_R0041_C0054", "years": "2022;2023", "core_year_overlap_n": 2, "official_2025_policy_hotspot": false, "geometry_method": "OSM_NAMED_ROAD_CORRIDOR_WITHIN_FROZEN_500M_GRID", "geometry_confidence": "MEDIUM", "geometry_is_proxy": true, "geometry_source_feature": "3 named OSM road segments; aliases=Jalan Stulang Darat", "road_segment_count": 3, "road_centerline_length_m": 338.13115557352575, "reference_lon": 103.7773894, "reference_lat": 1.4724632, "final_class": "RECURRENT", "class_cn": "经常内涝区域", "fill_hex": "#FFD700", "fill_opacity": 0.3, "outline_hex": "#B38F00", "classification_rule_version": "STEP3B_RULE_v0.1", "classification_rationale": "Observed in at least two of the 2022/2023/2025 core years, without a Step 3B severe trigger.", "d09_used": "False", "area_km2": 0.0031653118933329481, "centroid_x": 24066.551906355769, "centroid_y": -63055.29087905417, "centroid_lon": 103.77705390534658, "centroid_lat": 1.4721884416533342, "lon_min": 103.77669169965996, "lat_min": 1.4715274981889217, "lon_max": 103.7780687498138, "lat_max": 1.4726982797904153 }, "geometry": { "type": "MultiPolygon", "coordinates": [ [ [ [ 103.776751928375532, 1.471553812455366 ], [ 103.776717529753824, 1.471527498188922 ], [ 103.776691699659963, 1.471561696403143 ], [ 103.776691708042065, 1.47161566054199 ], [ 103.776698671623819, 1.47162098754448 ], [ 103.776771478252883, 1.47168231921604 ], [ 103.777475529317059, 1.472277208880686 ], [ 103.777819807421821, 1.472576316101026 ], [ 103.7778477, 1.4725438 ], [ 103.777821279006389, 1.472577537924592 ], [ 103.777888475126801, 1.47263083484772 ], [ 103.777973397661953, 1.472698223632035 ], [ 103.778042321062742, 1.472698212739688 ], [ 103.778068749813798, 1.472664480969112 ], [ 103.777941328752135, 1.472563368230735 ], [ 103.77787487035458, 1.472510656435048 ], [ 103.777530870682256, 1.472211791119132 ], [ 103.776826321746427, 1.471616480783796 ], [ 103.776751928375532, 1.471553812455366 ] ] ], [ [ [ 103.77741605122506, 1.472429643867015 ], [ 103.77671869246646, 1.471858531358315 ], [ 103.776691750946625, 1.471891849747166 ], [ 103.776691759552079, 1.471947239361249 ], [ 103.777362748774252, 1.472496756132827 ], [ 103.777617829218329, 1.472698279790415 ], [ 103.777686940631995, 1.472698268879447 ], [ 103.777713297467585, 1.472664480166047 ], [ 103.77741605122506, 1.472429643867015 ] ] ] ] } },
{ "type": "Feature", "properties": { "zone_id": "F10", "canonical_location": "Jalan Tun Abdul Razak", "location_type": "ROAD", "grid_id_500m": "JB0500_R0043_C0048", "years": "2022;2023", "core_year_overlap_n": 2, "official_2025_policy_hotspot": false, "geometry_method": "OSM_NAMED_ROAD_CORRIDOR_WITHIN_FROZEN_500M_GRID", "geometry_confidence": "MEDIUM", "geometry_is_proxy": true, "geometry_source_feature": "9 named OSM road segments; aliases=Jalan Tun Abdul Razak", "road_segment_count": 9, "road_centerline_length_m": 1065.78733555388, "reference_lon": 103.7527329, "reference_lat": 1.4803791, "final_class": "RECURRENT", "class_cn": "经常内涝区域", "fill_hex": "#FFD700", "fill_opacity": 0.3, "outline_hex": "#B38F00", "classification_rule_version": "STEP3B_RULE_v0.1", "classification_rationale": "Observed in at least two of the 2022/2023/2025 core years, without a Step 3B severe trigger.", "d09_used": "False", "area_km2": 0.01223638056791676, "centroid_x": 21358.320970298693, "centroid_y": -62282.343069311508, "centroid_lon": 103.75272039166408, "centroid_lat": 1.4795096766491058, "lon_min": 103.75250118885545, "lat_min": 1.4772236887726709, "lon_max": 103.75363734695473, "lat_max": 1.4817454934643852 }, "geometry": { "type": "MultiPolygon", "coordinates": [ [ [ [ 103.753153671453688, 1.477810183863983 ], [ 103.753215200000014, 1.4778476 ], [ 103.753139379915083, 1.477805716040362 ], [ 103.752962702751816, 1.478129640835605 ], [ 103.752683428336738, 1.47865216713445 ], [ 103.7527596, 1.4786934 ], [ 103.752721441035561, 1.478674151343466 ], [ 103.752668220545871, 1.478781008104033 ], [ 103.752647188908327, 1.478862491929493 ], [ 103.752635371707811, 1.478974598448726 ], [ 103.75263280120312, 1.479079166497335 ], [ 103.752636773464786, 1.479222779132793 ], [ 103.752651606221391, 1.479376323767485 ], [ 103.752705574939768, 1.479660465070705 ], [ 103.7527475, 1.479652400000012 ], [ 103.7527061505386, 1.479663057952571 ], [ 103.75288606728823, 1.480370016755537 ], [ 103.753010000571379, 1.480815856000786 ], [ 103.753263935778065, 1.481668189027584 ], [ 103.753275405213358, 1.481745476559772 ], [ 103.75331856181802, 1.48174547018203 ], [ 103.753360777766417, 1.48173912513251 ], [ 103.753347464221591, 1.481649410971667 ], [ 103.753091999428179, 1.480791943998533 ], [ 103.752968532711378, 1.480347783243778 ], [ 103.752789177116739, 1.479643029526593 ], [ 103.752736193778418, 1.479364076231781 ], [ 103.752722026535125, 1.479217420866385 ], [ 103.752718198796842, 1.47907903350182 ], [ 103.752720628292309, 1.478980201550446 ], [ 103.752731411091986, 1.478877908069644 ], [ 103.752748579454718, 1.478811391895124 ], [ 103.752797206869019, 1.478713757161324 ], [ 103.752835771666255, 1.478734632862298 ], [ 103.753114697251206, 1.478212759161141 ], [ 103.753291020087971, 1.477889483956379 ], [ 103.753278273694391, 1.477882442690921 ], [ 103.753477028541482, 1.47755141612964 ], [ 103.7534155, 1.477514 ], [ 103.753478426442584, 1.477548982318372 ], [ 103.753614826436873, 1.477300482315675 ], [ 103.7535519, 1.477265500000011 ], [ 103.753615575948672, 1.477299080604436 ], [ 103.753637346954733, 1.477257269376674 ], [ 103.753573671007075, 1.477223688772671 ], [ 103.753492503487067, 1.477223700739825 ], [ 103.753488591147743, 1.477231214388501 ], [ 103.753353249013571, 1.477477787105238 ], [ 103.753153671453688, 1.477810183863983 ] ] ], [ [ [ 103.753397026633024, 1.477253419871289 ], [ 103.753347925331425, 1.47722372204871 ], [ 103.753281083250172, 1.477223731897138 ], [ 103.753141232532613, 1.477457917690262 ], [ 103.752989417062906, 1.477740262321596 ], [ 103.7530398, 1.4777677 ], [ 103.752989393811745, 1.477740305607951 ], [ 103.752898128281061, 1.477910386798573 ], [ 103.752792324607242, 1.478120892014871 ], [ 103.752617462845535, 1.478459409023909 ], [ 103.752540945222293, 1.478675225337738 ], [ 103.7525949, 1.4786946 ], [ 103.752552806446374, 1.47868747919057 ], [ 103.752521788287737, 1.478873186591785 ], [ 103.75251076157852, 1.478956041479201 ], [ 103.752502629924493, 1.47911552348361 ], [ 103.752501188855447, 1.479228647236264 ], [ 103.752517538056594, 1.479394779523949 ], [ 103.752531233878045, 1.47952488985082 ], [ 103.7525681383608, 1.479683416025771 ], [ 103.752728181965139, 1.480313963805585 ], [ 103.753089327243103, 1.481432784544677 ], [ 103.753160988179729, 1.481745493464385 ], [ 103.753204791278975, 1.481745486993373 ], [ 103.753246383661718, 1.481735833557246 ], [ 103.75317167275648, 1.481409815454657 ], [ 103.752810218034426, 1.480290036193701 ], [ 103.752651061638872, 1.479662983973512 ], [ 103.752615566121705, 1.479510510148441 ], [ 103.752602461943241, 1.479386020475269 ], [ 103.752586611144508, 1.479224952762929 ], [ 103.752587970075538, 1.479118276515567 ], [ 103.752595838421641, 1.478963958519958 ], [ 103.752606211712518, 1.478886013407333 ], [ 103.752635733797874, 1.478709263038355 ], [ 103.752648854778698, 1.47871397466073 ], [ 103.752722737155608, 1.478505590974546 ], [ 103.752894275394027, 1.478173507983671 ], [ 103.752999671720232, 1.477963813199986 ], [ 103.753090194573176, 1.477795116038768 ], [ 103.753240767468739, 1.477515082308315 ], [ 103.753397026633024, 1.477253419871289 ] ] ] ] } },
{ "type": "Feature", "properties": { "zone_id": "F11", "canonical_location": "Jalan Yahya Awal", "location_type": "ROAD", "grid_id_500m": "JB0500_R0039_C0049", "years": "2022;2023", "core_year_overlap_n": 2, "official_2025_policy_hotspot": false, "geometry_method": "OSM_NAMED_ROAD_CORRIDOR_WITHIN_FROZEN_500M_GRID", "geometry_confidence": "MEDIUM", "geometry_is_proxy": true, "geometry_source_feature": "2 named OSM road segments; aliases=Jalan Yahya Awal", "road_segment_count": 2, "road_centerline_length_m": 42.231427466567958, "reference_lon": 103.7553464, "reference_lat": 1.4633725, "final_class": "RECURRENT", "class_cn": "经常内涝区域", "fill_hex": "#FFD700", "fill_opacity": 0.3, "outline_hex": "#B38F00", "classification_rule_version": "STEP3B_RULE_v0.1", "classification_rationale": "Observed in at least two of the 2022/2023/2025 core years, without a Step 3B severe trigger.", "d09_used": "False", "area_km2": 0.00054604075016286729, "centroid_x": 21610.373825789629, "centroid_y": -64016.025064039757, "centroid_lon": 103.7552550243379, "centroid_lat": 1.4634740445834462, "lon_min": 103.75503945482853, "lat_min": 1.4633338004774763, "lon_max": 103.75538886186189, "lat_max": 1.4636582338507822 }, "geometry": { "type": "MultiPolygon", "coordinates": [ [ [ [ 103.755101566661949, 1.463536892518992 ], [ 103.755039454828534, 1.463611926368394 ], [ 103.755094688167475, 1.463658233850782 ], [ 103.755188265478523, 1.463658220113012 ], [ 103.755212033340527, 1.463629507479106 ], [ 103.75520085166778, 1.463620132796089 ], [ 103.755388861861888, 1.46341119952138 ], [ 103.755303938139718, 1.463333800477476 ], [ 103.755114338138199, 1.463544500474094 ], [ 103.7551568, 1.4635832 ], [ 103.755101566661949, 1.463536892518992 ] ] ] ] } },
{ "type": "Feature", "properties": { "zone_id": "F12", "canonical_location": "Jalan Mahmoodiah", "location_type": "ROAD", "grid_id_500m": "JB0500_R0039_C0047", "years": "2022;2023", "core_year_overlap_n": 2, "official_2025_policy_hotspot": false, "geometry_method": "OSM_NAMED_ROAD_CORRIDOR_WITHIN_FROZEN_500M_GRID", "geometry_confidence": "MEDIUM", "geometry_is_proxy": true, "geometry_source_feature": "11 named OSM road segments; aliases=Jalan Mahmoodiah", "road_segment_count": 11, "road_centerline_length_m": 567.8715283393891, "reference_lon": 103.7482815, "reference_lat": 1.4629658, "final_class": "RECURRENT", "class_cn": "经常内涝区域", "fill_hex": "#FFD700", "fill_opacity": 0.3, "outline_hex": "#B38F00", "classification_rule_version": "STEP3B_RULE_v0.1", "classification_rationale": "Observed in at least two of the 2022/2023/2025 core years, without a Step 3B severe trigger.", "d09_used": "False", "area_km2": 0.0066190347002178058, "centroid_x": 20713.126700702822, "centroid_y": -64125.392207493554, "centroid_lon": 103.74663128856423, "centroid_lat": 1.462469764129773, "lon_min": 103.74523892428232, "lat_min": 1.461308253530508, "lon_max": 103.74973227599267, "lat_max": 1.4636590208210181 }, "geometry": { "type": "MultiPolygon", "coordinates": [ [ [ [ 103.74569676144462, 1.461917243262811 ], [ 103.746069667351421, 1.462190673864971 ], [ 103.746220273949262, 1.462301078702807 ], [ 103.7462626, 1.4622426 ], [ 103.746240439303705, 1.462279313421811 ], [ 103.746307727055012, 1.462320450038385 ], [ 103.746407201893604, 1.462392417038906 ], [ 103.746474034855979, 1.462425833520109 ], [ 103.746528034855345, 1.462454533519653 ], [ 103.746597324710805, 1.462489178447237 ], [ 103.746681042327452, 1.462524550660384 ], [ 103.746777508067524, 1.462566092842192 ], [ 103.746888508435717, 1.462613893000449 ], [ 103.7469053, 1.4625744 ], [ 103.746883358143478, 1.462627655668467 ], [ 103.746989758145801, 1.462672055669037 ], [ 103.7470117, 1.4626188 ], [ 103.746994767613444, 1.462673876336085 ], [ 103.747195167618187, 1.462736276336606 ], [ 103.7472121, 1.4626812 ], [ 103.747195809750636, 1.462736472142635 ], [ 103.747242709751745, 1.462750472142746 ], [ 103.747259, 1.46269520000001 ], [ 103.747243654636932, 1.462750745342776 ], [ 103.747453179910565, 1.462809372603609 ], [ 103.74765441536104, 1.46287346539691 ], [ 103.7476717, 1.46281850000001 ], [ 103.747661737942721, 1.46286027025198 ], [ 103.748267425054564, 1.463006576763187 ], [ 103.748767031688828, 1.463239065012407 ], [ 103.748973780268216, 1.463335981537261 ], [ 103.749643051532374, 1.463636978664488 ], [ 103.749688666634313, 1.463659020821018 ], [ 103.749719597299034, 1.463659016355648 ], [ 103.74973227599267, 1.4636324420268 ], [ 103.749732269199797, 1.463584787011561 ], [ 103.749679475366449, 1.463559275944096 ], [ 103.749661, 1.463598 ], [ 103.749678414838058, 1.463558781342021 ], [ 103.74900921973132, 1.463257818462717 ], [ 103.748803022448229, 1.463161160365358 ], [ 103.748785, 1.4632001 ], [ 103.748802914102825, 1.463161109762348 ], [ 103.748295574945104, 1.462925023236828 ], [ 103.747684611221104, 1.46277744213273 ], [ 103.747688984638415, 1.462763534603134 ], [ 103.747486784643172, 1.46269913460368 ], [ 103.7474695, 1.4627541 ], [ 103.747484845357505, 1.462698554656905 ], [ 103.747274818969899, 1.462639787177353 ], [ 103.747228711884773, 1.462626023868128 ], [ 103.747031179215213, 1.462564516688751 ], [ 103.74692724185573, 1.462521144331508 ], [ 103.746921649869321, 1.462534716792362 ], [ 103.746811091751354, 1.462487107079991 ], [ 103.746714491933574, 1.462445507158209 ], [ 103.7466977, 1.462485 ], [ 103.746714223020689, 1.462445392446933 ], [ 103.746632875288768, 1.462411021552745 ], [ 103.746566965144154, 1.462378066480303 ], [ 103.746512965143509, 1.462349366479889 ], [ 103.746451398105833, 1.462318582960984 ], [ 103.746354872944352, 1.462248749961534 ], [ 103.746287819265916, 1.462207756446442 ], [ 103.746304926048879, 1.462184121296827 ], [ 103.746154329349338, 1.462073723716899 ], [ 103.745790238553425, 1.461806756736731 ], [ 103.745541348044171, 1.461558456718468 ], [ 103.745505978193989, 1.461522787124429 ], [ 103.745422851340336, 1.461439660272158 ], [ 103.745358130205901, 1.461376042910034 ], [ 103.745289148434594, 1.461308253530508 ], [ 103.745238924282319, 1.461360016569033 ], [ 103.74523893847541, 1.461461149555839 ], [ 103.745257672818809, 1.461479560064399 ], [ 103.745321948657619, 1.461542739727173 ], [ 103.745404421803954, 1.461625212874916 ], [ 103.74543985195379, 1.461660943280856 ], [ 103.74569676144462, 1.461917243262811 ] ] ] ] } },
{ "type": "Feature", "properties": { "zone_id": "F13", "canonical_location": "Jalan Tebrau", "location_type": "ROAD", "grid_id_500m": "JB0500_R0042_C0050", "years": "2022;2023", "core_year_overlap_n": 2, "official_2025_policy_hotspot": false, "geometry_method": "OSM_NAMED_ROAD_CORRIDOR_WITHIN_FROZEN_500M_GRID", "geometry_confidence": "MEDIUM", "geometry_is_proxy": true, "geometry_source_feature": "6 named OSM road segments; aliases=Jalan Tebrau", "road_segment_count": 6, "road_centerline_length_m": 698.72372230121516, "reference_lon": 103.762918, "reference_lat": 1.4748694, "final_class": "RECURRENT", "class_cn": "经常内涝区域", "fill_hex": "#FFD700", "fill_opacity": 0.3, "outline_hex": "#B38F00", "classification_rule_version": "STEP3B_RULE_v0.1", "classification_rationale": "Observed in at least two of the 2022/2023/2025 core years, without a Step 3B severe trigger.", "d09_used": "False", "area_km2": 0.0068945809546673573, "centroid_x": 22459.776060121163, "centroid_y": -62822.093830054349, "centroid_lon": 103.76289677499766, "centroid_lat": 1.4741874558148518, "lon_min": 103.76242423841225, "lat_min": 1.4727005999550618, "lon_max": 103.76321323359042, "lat_max": 1.476118223520084 }, "geometry": { "type": "MultiPolygon", "coordinates": [ [ [ [ 103.763021370844754, 1.47493170120102 ], [ 103.763084824011258, 1.475119882911453 ], [ 103.763070804153884, 1.47512316601785 ], [ 103.763074940156145, 1.475141054229583 ], [ 103.763157624721117, 1.475467523854856 ], [ 103.763213136355319, 1.475453284406238 ], [ 103.763213101390576, 1.475219726244958 ], [ 103.763186259843181, 1.475113745769145 ], [ 103.76318239584549, 1.475097033980889 ], [ 103.7631266, 1.4751101 ], [ 103.763167020151414, 1.475096296111808 ], [ 103.763103629154841, 1.474908298798315 ], [ 103.762773118934021, 1.47344736385792 ], [ 103.7627315, 1.4734569 ], [ 103.762773037534046, 1.473447010932588 ], [ 103.76259758314977, 1.472700599955062 ], [ 103.762553722624247, 1.472700606581025 ], [ 103.762512185102324, 1.472710495641422 ], [ 103.76268992102618, 1.473466612776763 ], [ 103.763021370844754, 1.47493170120102 ] ] ], [ [ [ 103.762569204372937, 1.473510783591502 ], [ 103.7626112, 1.4735031 ], [ 103.762569565846619, 1.47351256862217 ], [ 103.762876137146847, 1.474877850246474 ], [ 103.76295585789299, 1.475335221885034 ], [ 103.7629979, 1.4753278 ], [ 103.762942939590303, 1.475344061501922 ], [ 103.763015531969302, 1.475592550820102 ], [ 103.763093846698297, 1.47588852857951 ], [ 103.763158089937392, 1.476118223520084 ], [ 103.76321323359042, 1.476102602883173 ], [ 103.763213201704801, 1.475889707954603 ], [ 103.763204353300978, 1.475858071419251 ], [ 103.763125868029974, 1.475561449178715 ], [ 103.763052860408933, 1.475311538496896 ], [ 103.763039110455011, 1.475315606787694 ], [ 103.762959862852824, 1.474860949752818 ], [ 103.762653033699181, 1.473494520034711 ], [ 103.762509616473963, 1.472700613243218 ], [ 103.76246623402541, 1.47270061979524 ], [ 103.762424238412251, 1.472708303380712 ], [ 103.762569204372937, 1.473510783591502 ] ] ] ] } },
{ "type": "Feature", "properties": { "zone_id": "F14", "canonical_location": "Jalan Sungai Chat", "location_type": "ROAD", "grid_id_500m": "JB0500_R0039_C0045", "years": "2022;2023", "core_year_overlap_n": 2, "official_2025_policy_hotspot": false, "geometry_method": "OSM_NAMED_ROAD_CORRIDOR_WITHIN_FROZEN_500M_GRID", "geometry_confidence": "MEDIUM", "geometry_is_proxy": true, "geometry_source_feature": "14 named OSM road segments; aliases=Jalan Sungai Chat", "road_segment_count": 14, "road_centerline_length_m": 977.0882985232264, "reference_lon": 103.7385575, "reference_lat": 1.4609922, "final_class": "RECURRENT", "class_cn": "经常内涝区域", "fill_hex": "#FFD700", "fill_opacity": 0.3, "outline_hex": "#B38F00", "classification_rule_version": "STEP3B_RULE_v0.1", "classification_rationale": "Observed in at least two of the 2022/2023/2025 core years, without a Step 3B severe trigger.", "d09_used": "False", "area_km2": 0.010090600526484667, "centroid_x": 19836.202134652649, "centroid_y": -64194.728783173814, "centroid_lon": 103.73868199605512, "centroid_lat": 1.4614419899780198, "lon_min": 103.73807424512268, "lat_min": 1.4594384602466599, "lon_max": 103.74074600420509, "lat_max": 1.4632027859238494 }, "geometry": { "type": "MultiPolygon", "coordinates": [ [ [ [ 103.73845587867865, 1.45943846024666 ], [ 103.73838503713435, 1.459525769341174 ], [ 103.738347769003099, 1.459595344209422 ], [ 103.738340916920492, 1.459635425204785 ], [ 103.738320771819943, 1.45961041059311 ], [ 103.738236245874035, 1.459560689448481 ], [ 103.738093554877139, 1.459525381238006 ], [ 103.738074245122675, 1.459604418762008 ], [ 103.738205554125585, 1.459636910551517 ], [ 103.738267228179396, 1.459673189406704 ], [ 103.738290684433508, 1.459702315550447 ], [ 103.738326147468996, 1.459765163483202 ], [ 103.738515315642616, 1.460998751863975 ], [ 103.738557500000013, 1.4609922 ], [ 103.738516381701416, 1.461003726992103 ], [ 103.738845428732674, 1.46219253570008 ], [ 103.738867043437779, 1.462273516144424 ], [ 103.738891730515576, 1.462368334682512 ], [ 103.738977644081757, 1.462650842460967 ], [ 103.738402979794941, 1.463059209487662 ], [ 103.738452220205957, 1.46312939051188 ], [ 103.739049463803042, 1.462704978196206 ], [ 103.739386982800781, 1.462535527462693 ], [ 103.739462466181621, 1.462504215110557 ], [ 103.739562980732586, 1.462462483269697 ], [ 103.7395819, 1.4625112 ], [ 103.739565267854047, 1.462471638706454 ], [ 103.739255267858013, 1.462603638703224 ], [ 103.7392719, 1.4626432 ], [ 103.739252231087917, 1.462605075933756 ], [ 103.739036704884626, 1.462717695962503 ], [ 103.738626272573612, 1.463007667645982 ], [ 103.738459684884575, 1.463134214075687 ], [ 103.738511115116324, 1.463202785923849 ], [ 103.738676527427259, 1.463077132353551 ], [ 103.739081095116234, 1.462791304037092 ], [ 103.73929007861895, 1.462682102797068 ], [ 103.739597443716889, 1.462551224753799 ], [ 103.739602753312397, 1.462564896853405 ], [ 103.739782235852928, 1.462494300386344 ], [ 103.739834768167995, 1.462474810996057 ], [ 103.739839807103735, 1.462488603969687 ], [ 103.740181014056773, 1.462362353389588 ], [ 103.740434119173287, 1.462265197881867 ], [ 103.740428969674284, 1.46225161058893 ], [ 103.740473079291107, 1.46223829269575 ], [ 103.740746004205093, 1.462140163184006 ], [ 103.740745995731302, 1.462078945078172 ], [ 103.74072900940395, 1.46203109556315 ], [ 103.740745988257714, 1.462024950786065 ], [ 103.740745977616911, 1.461948070849653 ], [ 103.740721651016329, 1.461879991045435 ], [ 103.740343573408452, 1.462016820189604 ], [ 103.7403679, 1.4620849 ], [ 103.740346377333822, 1.462031471326318 ], [ 103.739918677341407, 1.46220597132044 ], [ 103.7399402, 1.4622594 ], [ 103.739923921829345, 1.462219689867389 ], [ 103.73942992782689, 1.46242478737489 ], [ 103.739351617200015, 1.462457272536999 ], [ 103.739053560425575, 1.462606911341171 ], [ 103.738973869484013, 1.462344865316818 ], [ 103.738949589882523, 1.462251611833393 ], [ 103.7389083, 1.462262499999984 ], [ 103.738949522458554, 1.462251356085321 ], [ 103.738927822457242, 1.462170056086035 ], [ 103.7388866, 1.4621812 ], [ 103.738927718316873, 1.462169672997003 ], [ 103.738599298012304, 1.46098312873686 ], [ 103.738410284335458, 1.459750548143624 ], [ 103.73840934998141, 1.45975069326275 ], [ 103.738417302612106, 1.459668632585883 ], [ 103.738425230997393, 1.459622255789802 ], [ 103.738452562866399, 1.45957123065816 ], [ 103.738518521322106, 1.459489939752746 ], [ 103.73845587867865, 1.45943846024666 ] ], [ [ 103.740394909138601, 1.462152008976616 ], [ 103.7404085, 1.462197599999988 ], [ 103.740386490011574, 1.462139525186208 ], [ 103.74038730073211, 1.462139194415169 ], [ 103.740392226593443, 1.462152979809787 ], [ 103.740394909138601, 1.462152008976616 ] ], [ [ 103.73979506299689, 1.462366126851339 ], [ 103.739815, 1.4624207 ], [ 103.739795185435213, 1.462366606217112 ], [ 103.739783185645592, 1.462371058116512 ], [ 103.73979506299689, 1.462366126851339 ] ] ] ] } },
{ "type": "Feature", "properties": { "zone_id": "F15", "canonical_location": "Kampung Bunga Ros", "location_type": "COMMUNITY", "grid_id_500m": "JB0500_R0055_C0050", "years": "2022;2025", "core_year_overlap_n": 2, "official_2025_policy_hotspot": false, "geometry_method": "OSM_NAMED_RESIDENTIAL_POLYGON", "geometry_confidence": "HIGH", "geometry_is_proxy": false, "geometry_source_feature": "name=Taman Bunga Ros; osm_way_id=955933758", "road_segment_count": 0, "road_centerline_length_m": 0.0, "reference_lon": 103.75965347, "reference_lat": 1.53411714, "final_class": "SEVERE", "class_cn": "严重洪涝区域", "fill_hex": "#FF0000", "fill_opacity": 0.3, "outline_hex": "#B30000", "classification_rule_version": "STEP3B_RULE_v0.1", "classification_rationale": "High-consequence historical evidence: EVACUATION_OR_TRAPPED_VEHICLE", "d09_used": "False", "area_km2": 0.039908141368642881, "centroid_x": 22078.674290954415, "centroid_y": -56206.972640251981, "centroid_lon": 103.75926530536196, "centroid_lat": 1.5341655667323719, "lon_min": 103.7582009, "lat_min": 1.5321417, "lon_max": 103.7609324, "lat_max": 1.5357754 }, "geometry": { "type": "MultiPolygon", "coordinates": [ [ [ [ 103.7590291, 1.535775400000019 ], [ 103.7599131, 1.5351383 ], [ 103.759469, 1.5347222 ], [ 103.7597522, 1.534398299999989 ], [ 103.7596921, 1.533862 ], [ 103.7596878, 1.533696899999983 ], [ 103.7601578, 1.5334995 ], [ 103.7602822, 1.5333923 ], [ 103.7602329, 1.5332872 ], [ 103.760932400000016, 1.5325128 ], [ 103.7606878, 1.5321675 ], [ 103.7605504, 1.53214170000001 ], [ 103.7590913, 1.533585299999982 ], [ 103.7589926, 1.533932799999973 ], [ 103.7582009, 1.5349128 ], [ 103.758218, 1.5351512 ], [ 103.7590291, 1.535775400000019 ] ] ] ] } },
{ "type": "Feature", "properties": { "zone_id": "F16", "canonical_location": "Kampung Tengah Tebrau", "location_type": "COMMUNITY", "grid_id_500m": "JB0500_R0050_C0051", "years": "2022;2023", "core_year_overlap_n": 2, "official_2025_policy_hotspot": false, "geometry_method": "FROZEN_500M_GRID_SUPPORT", "geometry_confidence": "LOW", "geometry_is_proxy": true, "geometry_source_feature": "JB0500_R0050_C0051", "road_segment_count": 0, "road_centerline_length_m": 0.0, "reference_lon": 103.76595541, "reference_lat": 1.51143829, "final_class": "RECURRENT", "class_cn": "经常内涝区域", "fill_hex": "#FFD700", "fill_opacity": 0.3, "outline_hex": "#B38F00", "classification_rule_version": "STEP3B_RULE_v0.1", "classification_rationale": "Observed in at least two of the 2022/2023/2025 core years, without a Step 3B severe trigger.", "d09_used": "False", "area_km2": 0.25, "centroid_x": 22750.0, "centroid_y": -58750.0, "centroid_lon": 103.76546510747862, "centroid_lat": 1.5111349355017751, "lon_min": 103.76321819678492, "lat_min": 1.5088737151856335, "lon_max": 103.76771202334008, "lat_max": 1.5133961544842742 }, "geometry": { "type": "MultiPolygon", "coordinates": [ [ [ [ 103.767711320679155, 1.508873715185634 ], [ 103.767712023340081, 1.513395450948698 ], [ 103.763218890154391, 1.513396154484274 ], [ 103.763218196784919, 1.508874416618246 ], [ 103.767711320679155, 1.508873715185634 ] ] ] ] } },
{ "type": "Feature", "properties": { "zone_id": "F17", "canonical_location": "Kampung Sentosa Barat", "location_type": "COMMUNITY", "grid_id_500m": "JB0500_R0052_C0086", "years": "2017;2022;2023", "core_year_overlap_n": 2, "official_2025_policy_hotspot": false, "geometry_method": "OSM_RESIDENTIAL_POLYGON_CONTAINING_OFFICIAL_MYGEONAME_POINT", "geometry_confidence": "MEDIUM", "geometry_is_proxy": true, "geometry_source_feature": "name=None; osm_way_id=724877364", "road_segment_count": 0, "road_centerline_length_m": 0.0, "reference_lon": 103.92185516000001, "reference_lat": 1.52194889, "final_class": "SEVERE", "class_cn": "严重洪涝区域", "fill_hex": "#FF0000", "fill_opacity": 0.3, "outline_hex": "#B30000", "classification_rule_version": "STEP3C_RULE_v0.1", "classification_rationale": "Not Mild: official JPS 2022 shallow event (0.1–0.3 m) is superseded by 2023 evacuation/PPS evidence; older official reporting also documents repeated deeper flooding.", "d09_used": "False", "area_km2": 0.59742087134898403, "centroid_x": null, "centroid_y": null, "centroid_lon": 103.93021444716506, "centroid_lat": 1.5214011496980211, "lon_min": 103.919402, "lat_min": 1.5195277, "lon_max": 103.9416318, "lat_max": 1.5232705 }, "geometry": { "type": "Polygon", "coordinates": [ [ [ 103.9196907, 1.523234399999973 ], [ 103.919402, 1.521584 ], [ 103.919447100000014, 1.52122329999996 ], [ 103.9197809, 1.521042899999967 ], [ 103.9205478, 1.520700199999957 ], [ 103.921504100000021, 1.520050799999971 ], [ 103.9219823, 1.519843399999957 ], [ 103.9228032, 1.519536799999949 ], [ 103.9231641, 1.519527699999952 ], [ 103.92368740000002, 1.519870499999953 ], [ 103.9247069, 1.520014799999954 ], [ 103.9259519, 1.520555899999954 ], [ 103.9265473, 1.520591899999965 ], [ 103.9276209, 1.520402599999952 ], [ 103.9281983, 1.520059799999948 ], [ 103.9292448, 1.520123 ], [ 103.930562, 1.520023799999962 ], [ 103.9315364, 1.51987949999995 ], [ 103.931807, 1.520204099999955 ], [ 103.932943800000018, 1.520438599999957 ], [ 103.9332505, 1.520186099999969 ], [ 103.9340174, 1.520077899999938 ], [ 103.9350639, 1.520114 ], [ 103.936164600000012, 1.520591899999959 ], [ 103.9372743, 1.520799399999967 ], [ 103.938699699999987, 1.521106 ], [ 103.9393042, 1.521097 ], [ 103.9397733, 1.520970699999937 ], [ 103.9401071, 1.520916599999948 ], [ 103.9405763, 1.521106 ], [ 103.9416318, 1.521827499999949 ], [ 103.9400259, 1.522053 ], [ 103.9266014, 1.522774499999969 ], [ 103.92582560000001, 1.522927799999948 ], [ 103.9203764, 1.523270499999956 ], [ 103.9196907, 1.523234399999973 ] ] ] } },
{ "type": "Feature", "properties": { "zone_id": "F18", "canonical_location": "Puteri Harbour Iskandar Puteri", "location_type": "LOCALITY", "grid_id_500m": "JB0500_R0029_C0028", "years": "2022", "core_year_overlap_n": 1, "official_2025_policy_hotspot": false, "geometry_method": "FROZEN_500M_GRID_SUPPORT", "geometry_confidence": "LOW", "geometry_is_proxy": true, "geometry_source_feature": "JB0500_R0029_C0028", "road_segment_count": 0, "road_centerline_length_m": 0.0, "reference_lon": 103.66077, "reference_lat": 1.414074, "final_class": "MILD", "class_cn": "轻度内涝区域", "fill_hex": "#0066FF", "fill_opacity": 0.3, "outline_hex": "#003D99", "classification_rule_version": "STEP3C_RULE_v0.1", "classification_rationale": "Official JPS 2022 event-level maximum-depth range 0.1–0.3 m; one core year; no verified high-consequence evidence in the curated/targeted review.", "d09_used": "False", "area_km2": 0.25, "centroid_x": null, "centroid_y": null, "centroid_lon": 103.66211329987199, "centroid_lat": 1.4161912449839336, "lon_min": 103.65986660550496, "lat_min": 1.413930125036519, "lon_max": 103.66435999895488, "lat_max": 1.4184523634256656 }, "geometry": { "type": "Polygon", "coordinates": [ [ [ 103.664359540757701, 1.413930125036519 ], [ 103.664359998954879, 1.418451905931559 ], [ 103.659867054994834, 1.418452363425666 ], [ 103.659866605504959, 1.413930581071643 ], [ 103.664359540757701, 1.413930125036519 ] ] ] } },
{ "type": "Feature", "properties": { "zone_id": "F19", "canonical_location": "Kampung Paya Mengkuang", "location_type": "COMMUNITY", "grid_id_500m": "JB0500_R0021_C0012", "years": "2022", "core_year_overlap_n": 1, "official_2025_policy_hotspot": false, "geometry_method": "OSM_NAMED_RESIDENTIAL_POLYGON_CORROBORATED_BY_MBJB_LOCALITY", "geometry_confidence": "MEDIUM", "geometry_is_proxy": true, "geometry_source_feature": "name=Desa Paya Mengkuang; osm_way_id=299059496", "road_segment_count": 0, "road_centerline_length_m": 0.0, "reference_lon": 103.589058, "reference_lat": 1.380327, "final_class": "MILD", "class_cn": "轻度内涝区域", "fill_hex": "#0066FF", "fill_opacity": 0.3, "outline_hex": "#003D99", "classification_rule_version": "STEP3C_RULE_v0.1", "classification_rationale": "Official JPS 2022 event-level maximum-depth range 0.1–0.3 m; one core year; no verified high-consequence evidence in the targeted review.", "d09_used": "False", "area_km2": 0.24487238251130708, "centroid_x": null, "centroid_y": null, "centroid_lon": 103.59174748346219, "centroid_lat": 1.3761394391537847, "lon_min": 103.5890152, "lat_min": 1.3728393, "lon_max": 103.5951914, "lat_max": 1.3797665 }, "geometry": { "type": "Polygon", "coordinates": [ [ [ 103.5934728, 1.3728916 ], [ 103.5933214, 1.3728393 ], [ 103.5931699, 1.372877 ], [ 103.5925105, 1.373102 ], [ 103.5920728, 1.3732374 ], [ 103.5897067, 1.374109100000013 ], [ 103.5901255, 1.3751342 ], [ 103.5899215, 1.3752103 ], [ 103.5906297, 1.3766885 ], [ 103.58901520000002, 1.37850720000001 ], [ 103.5901311, 1.3791607 ], [ 103.5913002, 1.379766500000014 ], [ 103.5925394, 1.378452900000015 ], [ 103.5915739, 1.377879100000011 ], [ 103.5937732, 1.3754175 ], [ 103.5939807, 1.375590299999986 ], [ 103.5943258, 1.3751613 ], [ 103.5951914, 1.3741779 ], [ 103.5950983, 1.374275199999988 ], [ 103.5943419, 1.3735888 ], [ 103.5943108, 1.3733029 ], [ 103.5942357, 1.373093800000013 ], [ 103.5934728, 1.3728916 ] ] ] } }
]
}
