{
"type": "FeatureCollection",
"name": "JB_Study_Boundary_v1.0_WGS84",
"crs": { "type": "name", "properties": { "name": "urn:ogc:def:crs:OGC:1.3:CRS84" } },
"features": [
{ "type": "Feature", "properties": { "OBJECTID": 78, "FCD": "DA0085", "FNM": "District or Jajahan Coverage Administrative", "NAM": "JOHOR BAHRU", "KOD_NEGERI": "01", "KOD_DAERAH": "02", "ARM": "1108173087.89721", "BA5": null, "PPM": null, "Sumber": "JUPEM", "Tahun_Kemaskini": "OGOS 2019", "Tahun_Terima": "2019" }, "geometry": { "type": "Polygon", "coordinates": [ [ [ 103.909523051967014, 1.672656284167808 ], [ 103.909430573042158, 1.672684232559464 ], [ 103.909345804416915, 1.672722086263055 ], [ 103.909267485273361, 1.672761575830797 ], [ 103.909122593448458, 1.67283931279231 ], [ 103.908998683015227, 1.672935228850645 ], [ 103.908911750034548, 1.673013176690762 ], [ 103.908852241685821, 1.673073058795566 ], [ 103.908693165365676, 1.673087520405591 ], [ 103.908518357321881, 1.67308755306048 ], [ 103.908455433389918, 1.672961185293963 ], [ 103.908403629225106, 1.672856840840549 ], [ 103.908353028640136, 1.672734804685631 ], [ 103.908295353730935, 1.672619110174417 ], [ 103.908205308097834, 1.672478117580596 ], [ 103.90815412, 1.672385407099316 ], [ 103.908094911072865, 1.67228653945568 ], [ 103.908013480633073, 1.672163723304573 ], [ 103.907964772704673, 1.672077839118134 ], [ 103.907944398465347, 1.671965428793177 ], [ 103.907892901398355, 1.671872142928163 ], [ 103.907853410163085, 1.671730975056732 ], [ 103.907707788332019, 1.671185829081045 ], [ 103.907293218659802, 1.669985878975693 ], [ 103.906928351895544, 1.669252096590444 ], [ 103.905863073146165, 1.668786135642747 ], [ 103.905271238262927, 1.669500341032511 ], [ 103.903246343724035, 1.669907293914527 ], [ 103.902270078526044, 1.670790104605307 ], [ 103.901135753456586, 1.670462961081361 ], [ 103.900373808335885, 1.669827109698249 ], [ 103.900401178420495, 1.669462603879908 ], [ 103.901003424253929, 1.662879883475768 ], [ 103.900899227929159, 1.662889460287601 ], [ 103.898345519469245, 1.662958716561876 ], [ 103.898282754494858, 1.658242953446798 ], [ 103.898211467343373, 1.650432782929439 ], [ 103.895847205058374, 1.651304120245688 ], [ 103.893910159030781, 1.647829967595256 ], [ 103.891154300247337, 1.642728983378741 ], [ 103.889261316294991, 1.640810697559495 ], [ 103.887315904151265, 1.638814121909778 ], [ 103.886613534025813, 1.638524150973826 ], [ 103.886322205270616, 1.638491445876806 ], [ 103.884725234734589, 1.636848554335337 ], [ 103.882967306870881, 1.635106080483803 ], [ 103.881049401249555, 1.633373066010619 ], [ 103.879491941946725, 1.631949509864422 ], [ 103.878840039309054, 1.631131098153253 ], [ 103.878724109995773, 1.630984996847607 ], [ 103.878157652199903, 1.630275846946456 ], [ 103.881300432936015, 1.627965024328145 ], [ 103.883946584275833, 1.626031316085796 ], [ 103.886593052356517, 1.624121738094374 ], [ 103.889297157750192, 1.622164199022452 ], [ 103.891039768325498, 1.620863794648729 ], [ 103.892697933517013, 1.619626242286188 ], [ 103.894660349073988, 1.61816476339485 ], [ 103.89299207345195, 1.615889356239122 ], [ 103.889476381513205, 1.611228856913544 ], [ 103.886250559872735, 1.606869517455119 ], [ 103.884565972869751, 1.604581791667188 ], [ 103.881864096857782, 1.600918692502809 ], [ 103.875928962469331, 1.606409214075023 ], [ 103.875295188340985, 1.60692935463804 ], [ 103.868797330824407, 1.599757810184486 ], [ 103.866378639784969, 1.597057774853619 ], [ 103.862447520239371, 1.601202488758178 ], [ 103.859318693906161, 1.599584277665447 ], [ 103.857742160370307, 1.598247912174479 ], [ 103.855858100468453, 1.599910150404972 ], [ 103.855416848515944, 1.599398829781167 ], [ 103.850942112605651, 1.603182059649349 ], [ 103.849265953673196, 1.601342478439691 ], [ 103.848056623180682, 1.600016438950143 ], [ 103.846841733706668, 1.598622320110825 ], [ 103.845935753075906, 1.599354554944157 ], [ 103.844617629377396, 1.600530181460686 ], [ 103.844133662117684, 1.600962872115788 ], [ 103.843556598256001, 1.601478890468385 ], [ 103.842151550323962, 1.602764672953314 ], [ 103.840718743023231, 1.604075056680352 ], [ 103.840325712615623, 1.604440668053372 ], [ 103.839926517520439, 1.604812237576204 ], [ 103.839395404996168, 1.605306734691346 ], [ 103.838902484820593, 1.60578605473812 ], [ 103.837645089546612, 1.606885738014881 ], [ 103.836065574482845, 1.608484905606017 ], [ 103.835327273045706, 1.609155662831231 ], [ 103.834895401594963, 1.609547987385765 ], [ 103.833604105401051, 1.61072159737311 ], [ 103.832520255050554, 1.611789135028171 ], [ 103.831436100643657, 1.612831575525324 ], [ 103.830493758787213, 1.613734460305304 ], [ 103.829757945672995, 1.614439639733206 ], [ 103.828679322567581, 1.615447371297948 ], [ 103.827605622368566, 1.616445198047059 ], [ 103.826519005116566, 1.617429559906614 ], [ 103.825250175363806, 1.618541923338782 ], [ 103.823232910352957, 1.620427723836143 ], [ 103.821695596906281, 1.621851607980241 ], [ 103.81975813248259, 1.623634457274859 ], [ 103.819560227596682, 1.623707163884357 ], [ 103.819441525291936, 1.623750770489693 ], [ 103.816033729006264, 1.62505369476865 ], [ 103.81113042565984, 1.626960029887395 ], [ 103.810709607540602, 1.627123797715304 ], [ 103.804681329216677, 1.629447148146777 ], [ 103.802152765164763, 1.630418874473581 ], [ 103.799882220325117, 1.631294648695108 ], [ 103.796960255026747, 1.63241139574906 ], [ 103.791527333498848, 1.629508368059938 ], [ 103.790319694665484, 1.635014630057724 ], [ 103.786698833984332, 1.636404907769882 ], [ 103.786279254538513, 1.636567899699841 ], [ 103.785575423956345, 1.63684125183203 ], [ 103.785447476003597, 1.636890906973454 ], [ 103.784820411430886, 1.637134580410147 ], [ 103.780738979504932, 1.638745512643076 ], [ 103.777511646765745, 1.638664127376292 ], [ 103.775680632087358, 1.638650261438438 ], [ 103.774757252088136, 1.638653804857251 ], [ 103.774858350959462, 1.641437570253023 ], [ 103.774898553162245, 1.64258911428807 ], [ 103.774935104874473, 1.644135650932098 ], [ 103.77497468672918, 1.645287484223622 ], [ 103.773490923415622, 1.646263659550302 ], [ 103.77323687871899, 1.646431047055682 ], [ 103.773012517164915, 1.647106039334481 ], [ 103.772835600876576, 1.647637784470013 ], [ 103.772934439160721, 1.649272520842171 ], [ 103.774607434932861, 1.650636980503663 ], [ 103.776363694858802, 1.652069263642889 ], [ 103.776370263711456, 1.652883007213211 ], [ 103.77637932684361, 1.653981366131827 ], [ 103.776593633562129, 1.654277898320949 ], [ 103.776609390620536, 1.654698381031595 ], [ 103.776641558073209, 1.655562809534522 ], [ 103.776419304333004, 1.655863959882628 ], [ 103.775885364177668, 1.656371417373655 ], [ 103.775674511311109, 1.656650649220792 ], [ 103.775010455978773, 1.657032762193986 ], [ 103.774718187815012, 1.657019847941376 ], [ 103.773652661687237, 1.656973137725935 ], [ 103.773341604049932, 1.657154442465761 ], [ 103.772126969803054, 1.657862274702354 ], [ 103.771696287595717, 1.658113047247125 ], [ 103.770897473049772, 1.658240198790674 ], [ 103.770175727445974, 1.658355075049849 ], [ 103.769363756698155, 1.659437017871959 ], [ 103.767927448931175, 1.657340259245296 ], [ 103.767531270235523, 1.65713720479561 ], [ 103.766890569299989, 1.656808851383062 ], [ 103.76556635066764, 1.656349912618207 ], [ 103.765543000936262, 1.657298545641818 ], [ 103.765509833078738, 1.658557460105557 ], [ 103.765496325096763, 1.659094948954005 ], [ 103.765487415957381, 1.659452538031044 ], [ 103.765474534896924, 1.659970218574532 ], [ 103.765452112281523, 1.660877794931015 ], [ 103.765435218316981, 1.661558741743003 ], [ 103.765420800598832, 1.662146133403975 ], [ 103.765404514132626, 1.662806407205593 ], [ 103.765387640513467, 1.663485816401145 ], [ 103.765370448390229, 1.664186667588933 ], [ 103.765353867912509, 1.664857326781123 ], [ 103.765334217497298, 1.665659808557703 ], [ 103.765315174467531, 1.666437773184144 ], [ 103.764484598804387, 1.666556061691674 ], [ 103.763541511020122, 1.666690550698896 ], [ 103.76296991399704, 1.666771357479423 ], [ 103.762520714813263, 1.666834907535411 ], [ 103.761927528493686, 1.666918204535464 ], [ 103.761765987650207, 1.666941017353319 ], [ 103.761334674495998, 1.667001980871639 ], [ 103.760833053882095, 1.667073009361767 ], [ 103.759786987943855, 1.667220720064704 ], [ 103.759662130662605, 1.667238357035111 ], [ 103.758473919405034, 1.667407252805044 ], [ 103.757181818476894, 1.667590045607696 ], [ 103.755889406331875, 1.66777293321687 ], [ 103.754804795217169, 1.667926776341632 ], [ 103.753717411976822, 1.668080619385397 ], [ 103.753024327898501, 1.668178386278503 ], [ 103.75214195030803, 1.668303281438668 ], [ 103.751222601333609, 1.668433447394047 ], [ 103.749772949212129, 1.668638950786687 ], [ 103.747131093177444, 1.669013726570391 ], [ 103.746017510187215, 1.6691709179272 ], [ 103.744293760866867, 1.669415044481419 ], [ 103.742059192074038, 1.669731727899619 ], [ 103.739885645026845, 1.670131798529635 ], [ 103.737310826991489, 1.66863497704238 ], [ 103.730210749006275, 1.664504196675206 ], [ 103.724826501351416, 1.661374457834985 ], [ 103.722890872935068, 1.660207716683633 ], [ 103.723850205537587, 1.65894663453313 ], [ 103.726380841001685, 1.65551601456457 ], [ 103.727496756882871, 1.654003661381131 ], [ 103.728391987973765, 1.652789951923279 ], [ 103.72927025002609, 1.651599790996405 ], [ 103.730145118995466, 1.650413090454888 ], [ 103.731024930612193, 1.649221775111345 ], [ 103.731911506193086, 1.648021136960215 ], [ 103.733139364179323, 1.646357388493117 ], [ 103.733178506570212, 1.646304138472916 ], [ 103.734222004286991, 1.644891072541641 ], [ 103.735214935613484, 1.643543942756286 ], [ 103.736272911946287, 1.642110691779655 ], [ 103.737354926605292, 1.640644756899641 ], [ 103.738401811166241, 1.639224862564698 ], [ 103.737593132467794, 1.639220361984732 ], [ 103.736925325089175, 1.639216791266778 ], [ 103.736022319121503, 1.639212345026857 ], [ 103.734054093103765, 1.639201740475772 ], [ 103.730871781429855, 1.639173563969276 ], [ 103.730242848256751, 1.639169814969755 ], [ 103.727336157895294, 1.639153489320965 ], [ 103.725699987507284, 1.63914072120925 ], [ 103.724289485041766, 1.63913199705878 ], [ 103.722795666838124, 1.63800497934133 ], [ 103.720669792586477, 1.6363958481773 ], [ 103.719924262992407, 1.635847050565253 ], [ 103.718991904906446, 1.63513941964443 ], [ 103.718272281970357, 1.63459851706516 ], [ 103.717602609751907, 1.634074272901023 ], [ 103.716957925182143, 1.633577057485711 ], [ 103.716578681652805, 1.633297366498979 ], [ 103.716044977075981, 1.632884145116409 ], [ 103.71502166707198, 1.632114738409384 ], [ 103.714062477396439, 1.631396419956463 ], [ 103.71276198385462, 1.630408808945946 ], [ 103.712714180307614, 1.630160617663702 ], [ 103.712298259945044, 1.629875908856238 ], [ 103.710703643320741, 1.628782586825035 ], [ 103.709217547222536, 1.627771715898387 ], [ 103.70841777019281, 1.627224043357751 ], [ 103.708269167464451, 1.627120128519175 ], [ 103.70739908738112, 1.626526846924856 ], [ 103.706730366921178, 1.626068655543113 ], [ 103.70598022042843, 1.625555235180384 ], [ 103.705725564129878, 1.625602327096378 ], [ 103.704378525990307, 1.624685650985143 ], [ 103.702079105434265, 1.623113056883804 ], [ 103.700739472797565, 1.622198209171976 ], [ 103.699333239610013, 1.621237753444197 ], [ 103.697797838618953, 1.620188775997479 ], [ 103.696148357590829, 1.619059071432377 ], [ 103.697459134745117, 1.617301641669766 ], [ 103.696497523743332, 1.616768982885159 ], [ 103.698259307871794, 1.61446331292492 ], [ 103.699196869940806, 1.61495355649251 ], [ 103.701290359357003, 1.612136795864303 ], [ 103.699913081328418, 1.610499636026901 ], [ 103.697387660690154, 1.608454536109246 ], [ 103.69293958097154, 1.614256569329523 ], [ 103.688936302579606, 1.61932179450539 ], [ 103.683086328125498, 1.614874067348759 ], [ 103.688631586750972, 1.607498573424222 ], [ 103.685043754339233, 1.604889210840751 ], [ 103.676328425689491, 1.598444173910676 ], [ 103.671435218237647, 1.594803987690928 ], [ 103.666013621157461, 1.590805272946528 ], [ 103.662490294437021, 1.5881710057355 ], [ 103.663020819761925, 1.587405991126308 ], [ 103.662300005509422, 1.586837668874607 ], [ 103.659573644518204, 1.584703202301292 ], [ 103.658915395359941, 1.58409740949471 ], [ 103.65724393528329, 1.586312985646571 ], [ 103.656041005987319, 1.587542080932794 ], [ 103.653406111126273, 1.589783621555714 ], [ 103.651290030067486, 1.591546095107395 ], [ 103.650977735288023, 1.591904971595733 ], [ 103.650977771306046, 1.591904835939611 ], [ 103.650977735334962, 1.591904875719473 ], [ 103.651104123238994, 1.591420045027759 ], [ 103.651604099608292, 1.589282546797851 ], [ 103.652077861052902, 1.587313012535325 ], [ 103.652186046648836, 1.587021725248785 ], [ 103.652866954449706, 1.584114815255151 ], [ 103.65306824918126, 1.583542137331079 ], [ 103.653504754186628, 1.582840347029402 ], [ 103.65411423278033, 1.582195661199625 ], [ 103.654661127774119, 1.581814688995643 ], [ 103.655603576008687, 1.58140045067463 ], [ 103.656284284511983, 1.581031946238227 ], [ 103.656773203504144, 1.580554889420794 ], [ 103.657247637690972, 1.579692158517053 ], [ 103.657701381666612, 1.578213661937259 ], [ 103.658762130423469, 1.576341625101481 ], [ 103.659221121601504, 1.574869187153818 ], [ 103.6601656700673, 1.57354073428257 ], [ 103.661185139772584, 1.57209626194195 ], [ 103.661791175345613, 1.570809949296624 ], [ 103.662092018691638, 1.569780694514982 ], [ 103.662239021468594, 1.56859040467487 ], [ 103.661809502619249, 1.567272819233889 ], [ 103.661673501074105, 1.566422866061067 ], [ 103.661863685995286, 1.565900853071348 ], [ 103.661878161181704, 1.565435581808923 ], [ 103.661664491238881, 1.564838566598816 ], [ 103.661200473383857, 1.564153834513462 ], [ 103.661183774952462, 1.562746068595302 ], [ 103.659943565179759, 1.557363266418883 ], [ 103.659843963537028, 1.556639099380412 ], [ 103.659854007388191, 1.55405290792615 ], [ 103.659858857915324, 1.545500114443173 ], [ 103.657526449666221, 1.547990845092708 ], [ 103.657496552370617, 1.547992176360893 ], [ 103.656350641069395, 1.548331896397038 ], [ 103.654687438645638, 1.548672901490608 ], [ 103.654215141463411, 1.548756993729676 ], [ 103.652009372354343, 1.549891654462889 ], [ 103.649782622083663, 1.550785826608588 ], [ 103.649204264794662, 1.550850058599111 ], [ 103.647868754610599, 1.550594886031551 ], [ 103.646493724101191, 1.549622784466453 ], [ 103.644825547586322, 1.548848611280439 ], [ 103.644545601969853, 1.548512517497676 ], [ 103.64408129396945, 1.548033259914687 ], [ 103.644375940555236, 1.545999510624906 ], [ 103.644240281205555, 1.545374169071441 ], [ 103.643819121177472, 1.544488981444219 ], [ 103.643027679898026, 1.543007565466121 ], [ 103.642723384999627, 1.542614825874595 ], [ 103.642499567702856, 1.542481930176826 ], [ 103.641605813308971, 1.542292836736819 ], [ 103.640036931569128, 1.542466955880799 ], [ 103.639723088281301, 1.542294977280101 ], [ 103.639690709437119, 1.542159580713727 ], [ 103.639436350592248, 1.541131208170244 ], [ 103.638678237423889, 1.540342290817576 ], [ 103.637709310100604, 1.541324957331225 ], [ 103.636515329301631, 1.541713678911931 ], [ 103.635898475458617, 1.542415373999393 ], [ 103.635584018184161, 1.542501271695942 ], [ 103.634551555204297, 1.5426645978422 ], [ 103.63417358249221, 1.54270257979757 ], [ 103.63308594834912, 1.542480118111137 ], [ 103.632598872768895, 1.543051590687421 ], [ 103.631986936933401, 1.54357578966896 ], [ 103.63090639337662, 1.544114944625881 ], [ 103.630254069470467, 1.54469777513463 ], [ 103.630080809629902, 1.545000469360428 ], [ 103.630078073937256, 1.545777661339542 ], [ 103.629873677583333, 1.546213124337922 ], [ 103.629297200426961, 1.546822915634317 ], [ 103.628993215119095, 1.54688266493119 ], [ 103.628143262777712, 1.546676759786619 ], [ 103.627772380829938, 1.546714264484875 ], [ 103.627622265863167, 1.546911492180477 ], [ 103.627572034697124, 1.547468567088621 ], [ 103.627789095889909, 1.548218369897617 ], [ 103.628381964776992, 1.54931681699177 ], [ 103.628281167222895, 1.549679064793964 ], [ 103.627819975156385, 1.550202281682175 ], [ 103.626141053767981, 1.551216599216031 ], [ 103.625879317414828, 1.551390597220569 ], [ 103.625148373296724, 1.5522982818663 ], [ 103.624974833604739, 1.552668377893961 ], [ 103.622942392157043, 1.557136180463172 ], [ 103.621082827879533, 1.558520296795891 ], [ 103.6205377744391, 1.558814723347849 ], [ 103.619951723301611, 1.559410851953891 ], [ 103.619892865441017, 1.560279647222638 ], [ 103.618990824400882, 1.561571942505384 ], [ 103.616236905178951, 1.563318665011743 ], [ 103.614381010328927, 1.564573834716813 ], [ 103.613363954217448, 1.564963783540021 ], [ 103.610955589822765, 1.565739832221968 ], [ 103.609483191307731, 1.566335787160508 ], [ 103.608521017753745, 1.566536343309519 ], [ 103.607630680662183, 1.56663261056688 ], [ 103.607056640751836, 1.56656596914098 ], [ 103.605665920343583, 1.565974013228278 ], [ 103.605457205514725, 1.566166689463497 ], [ 103.605155717984488, 1.566884494291469 ], [ 103.604868682786247, 1.566987997885885 ], [ 103.603573535609272, 1.566507049040344 ], [ 103.602467993282033, 1.56597244795068 ], [ 103.601414538720249, 1.564393575035871 ], [ 103.60130413596093, 1.563770072039204 ], [ 103.597136595444056, 1.560022323576381 ], [ 103.594003673575656, 1.557259313096288 ], [ 103.59378632771903, 1.557173048579708 ], [ 103.593074189571567, 1.557424495107148 ], [ 103.58438316941168, 1.561812389377566 ], [ 103.583843357589373, 1.561736623868361 ], [ 103.582904616930023, 1.561504979022418 ], [ 103.581096782331258, 1.560592794202966 ], [ 103.580872326009626, 1.560544022566239 ], [ 103.579629613269887, 1.560724124725712 ], [ 103.579369408787954, 1.560758504976517 ], [ 103.579079925414973, 1.561053726957737 ], [ 103.578835771392178, 1.561459931757466 ], [ 103.578812959452989, 1.561933560915709 ], [ 103.578871239332443, 1.562831739353899 ], [ 103.578825599978629, 1.563268529328333 ], [ 103.578467382901579, 1.563575156276647 ], [ 103.578077702303801, 1.563743886501355 ], [ 103.577635610639703, 1.563697979455112 ], [ 103.57676344642887, 1.563253968284026 ], [ 103.576378696070847, 1.56277281501989 ], [ 103.575722633442183, 1.562589680397301 ], [ 103.575153530017317, 1.56241428564581 ], [ 103.574913068933611, 1.562245602452944 ], [ 103.574807936552176, 1.562194106280262 ], [ 103.574721922273071, 1.561905509427151 ], [ 103.574568386896047, 1.561348616867088 ], [ 103.574367376956545, 1.560801698909307 ], [ 103.574240660209554, 1.560535292649994 ], [ 103.573335529537133, 1.560034148047591 ], [ 103.572344048206148, 1.559589590230455 ], [ 103.570226396849222, 1.559173466471824 ], [ 103.569962787137442, 1.55911149960749 ], [ 103.567606538460197, 1.558073049634902 ], [ 103.566244809399009, 1.557099267278243 ], [ 103.564672194395513, 1.55611085152903 ], [ 103.562526179266797, 1.554750790351235 ], [ 103.562013804978164, 1.554430426898173 ], [ 103.56134389585992, 1.553709604545066 ], [ 103.560903351691607, 1.553176881664849 ], [ 103.560220176251917, 1.552317787116785 ], [ 103.559770695163692, 1.552127836900446 ], [ 103.558301981926974, 1.552053966280045 ], [ 103.55646488088405, 1.55150134812821 ], [ 103.555781710214475, 1.551257138322504 ], [ 103.55345228448023, 1.549419291869128 ], [ 103.553225380443664, 1.548900913784759 ], [ 103.553081711048605, 1.54810509123633 ], [ 103.552990458929784, 1.547920143431069 ], [ 103.552785150873774, 1.547301108258516 ], [ 103.552479008782484, 1.546799707544341 ], [ 103.552362780257226, 1.546531383560279 ], [ 103.55227213768832, 1.545996254789372 ], [ 103.552284186346398, 1.545146192430858 ], [ 103.552081026568331, 1.544160631505019 ], [ 103.551952166017273, 1.543604136193952 ], [ 103.551806340934249, 1.543066958627954 ], [ 103.551553546824096, 1.54206444972669 ], [ 103.551481707062919, 1.541718266929833 ], [ 103.551237559070955, 1.539972517292987 ], [ 103.551262548388024, 1.539248322937659 ], [ 103.551215987876546, 1.538300347833848 ], [ 103.551087744073598, 1.5373005014039 ], [ 103.550734755982546, 1.536750904686581 ], [ 103.549779076576826, 1.535620610803705 ], [ 103.548981854321255, 1.534782606999168 ], [ 103.547837185906872, 1.533767879872306 ], [ 103.547039952447946, 1.532993623491365 ], [ 103.545935053227694, 1.531635274355978 ], [ 103.545211815813431, 1.530133582307987 ], [ 103.544447897534326, 1.528165441790462 ], [ 103.544163061256214, 1.527002246388352 ], [ 103.543798360260212, 1.525172589671556 ], [ 103.543639298362805, 1.524325608426804 ], [ 103.543536356881859, 1.52305896105711 ], [ 103.543764174191736, 1.523106777418062 ], [ 103.543926027286233, 1.523140901748165 ], [ 103.5445789711858, 1.523196642717487 ], [ 103.545792072681095, 1.523341148254497 ], [ 103.546274852727123, 1.523408045450862 ], [ 103.546396623855102, 1.523425034880175 ], [ 103.547172573041749, 1.523509781984951 ], [ 103.548324651381606, 1.523635600367711 ], [ 103.54845597411439, 1.523649901335951 ], [ 103.550248966392473, 1.523869045253447 ], [ 103.55204227587835, 1.52407799416401 ], [ 103.552225389670468, 1.524096266576716 ], [ 103.554027034718061, 1.52430233467217 ], [ 103.556215558084801, 1.524591973101452 ], [ 103.556305263385596, 1.524603271627396 ], [ 103.558551135670896, 1.524865440401819 ], [ 103.561429909689977, 1.525206981321018 ], [ 103.563743613599044, 1.525482161688379 ], [ 103.565812533248945, 1.525733552121793 ], [ 103.567611401589801, 1.525922299584125 ], [ 103.569413003156114, 1.5261376802189 ], [ 103.571287720678797, 1.52634627113711 ], [ 103.572726780350223, 1.526512994791683 ], [ 103.574148608520474, 1.526705764560071 ], [ 103.575752337044889, 1.526864977693763 ], [ 103.575925283623761, 1.526872375967761 ], [ 103.575884886673634, 1.524921262176411 ], [ 103.575660121530575, 1.52352243510751 ], [ 103.575656428609946, 1.52338003308401 ], [ 103.57553092123382, 1.51725669638148 ], [ 103.57531692016849, 1.509436059358647 ], [ 103.575119581082305, 1.503352880659729 ], [ 103.574570784063027, 1.493012639854315 ], [ 103.57528043757614, 1.492420919320552 ], [ 103.575676286807308, 1.492080466117088 ], [ 103.576283908228959, 1.491443499760043 ], [ 103.576483980715764, 1.491233420001209 ], [ 103.577310167109786, 1.490367441522926 ], [ 103.577500681821164, 1.490168508849689 ], [ 103.577565118203921, 1.490101430237033 ], [ 103.577962489811668, 1.489686748231019 ], [ 103.57893787890832, 1.488668641163882 ], [ 103.580086832826282, 1.487482745504726 ], [ 103.579778553572069, 1.487207304762405 ], [ 103.579403995448004, 1.486410113424485 ], [ 103.579351594240336, 1.486007215407522 ], [ 103.579309972202097, 1.48567066677452 ], [ 103.579998051571422, 1.485346615658602 ], [ 103.580067711333996, 1.484820900648082 ], [ 103.580407746234215, 1.484540510601883 ], [ 103.580564332149933, 1.483568220877493 ], [ 103.580293352420171, 1.483035883840681 ], [ 103.579892574825777, 1.482457713828884 ], [ 103.579883957144247, 1.481809556248732 ], [ 103.580031922290772, 1.480837070499811 ], [ 103.57973565471319, 1.480092420544086 ], [ 103.579561464104515, 1.479499561306276 ], [ 103.579552829805181, 1.479140434400822 ], [ 103.579387277744885, 1.478895162733861 ], [ 103.5795093687492, 1.478203040103424 ], [ 103.578495741949823, 1.478481920905768 ], [ 103.578321562647744, 1.478166552833388 ], [ 103.57736310376157, 1.4780876855323 ], [ 103.577015049308969, 1.476913023741698 ], [ 103.574749818308845, 1.477150382132552 ], [ 103.573987130481726, 1.477973126330551 ], [ 103.572950391266886, 1.478122093951697 ], [ 103.572244736307027, 1.478709105515284 ], [ 103.571330065656809, 1.478761599597777 ], [ 103.570711663445351, 1.478533781481773 ], [ 103.570032210263861, 1.478551305469937 ], [ 103.569565467343679, 1.478429331721489 ], [ 103.568955682285861, 1.477868643733001 ], [ 103.568546299573413, 1.477737279101079 ], [ 103.567892747652408, 1.478569499121248 ], [ 103.567518173055518, 1.478324115888483 ], [ 103.567161201806428, 1.4786570879917 ], [ 103.566925978202178, 1.478368032530619 ], [ 103.566411760243369, 1.478683421119989 ], [ 103.565793340358212, 1.479121441399078 ], [ 103.565880597898342, 1.479655796472753 ], [ 103.565000134481508, 1.479558024402313 ], [ 103.564412876109742, 1.48049960257017 ], [ 103.564159761293922, 1.480435526525814 ], [ 103.563935640122651, 1.479768603159802 ], [ 103.563643082077633, 1.479188372106806 ], [ 103.562213287112485, 1.478460810268981 ], [ 103.561254545594025, 1.477998198515013 ], [ 103.56061700645246, 1.477582488767762 ], [ 103.560090163476531, 1.477000401238828 ], [ 103.559772324096912, 1.476082764216857 ], [ 103.559211857316427, 1.475928815404848 ], [ 103.558914682140539, 1.475456847839284 ], [ 103.559013638678636, 1.475106816848347 ], [ 103.559318846525073, 1.47489102667014 ], [ 103.559517084736157, 1.474500857286598 ], [ 103.559318539715107, 1.474126919305164 ], [ 103.558914079915908, 1.473992861997825 ], [ 103.558815125021908, 1.473079956877482 ], [ 103.558418377153998, 1.472274004597787 ], [ 103.558014226602623, 1.471973896002407 ], [ 103.557114363435943, 1.472156869828354 ], [ 103.556618318971019, 1.471879978585551 ], [ 103.556412095129531, 1.471280083321945 ], [ 103.554512471908055, 1.470840138001609 ], [ 103.553917811353244, 1.469478138314203 ], [ 103.554917240843963, 1.46913214913198 ], [ 103.555214731362824, 1.468716171014201 ], [ 103.554619146500613, 1.467677140403538 ], [ 103.5547187383753, 1.466337242676848 ], [ 103.554016763769013, 1.465875345787634 ], [ 103.552315375094039, 1.466775167224991 ], [ 103.552117161562052, 1.465990379564932 ], [ 103.552613195899696, 1.464651368339076 ], [ 103.551662459981856, 1.462147105819821 ], [ 103.553463430339562, 1.46004305552275 ], [ 103.552952941412769, 1.457212409527557 ], [ 103.552607361562764, 1.456210436737603 ], [ 103.550885371232269, 1.449040078911013 ], [ 103.548712068286491, 1.442482633750104 ], [ 103.548206856299075, 1.433335711936605 ], [ 103.545583203393988, 1.424800329153065 ], [ 103.542546755940634, 1.4175260273116 ], [ 103.539231712852285, 1.406558858238493 ], [ 103.5388837185494, 1.403818598844566 ], [ 103.538724375567043, 1.399319578338585 ], [ 103.535231814256605, 1.387644581202129 ], [ 103.536983448104678, 1.380943464810854 ], [ 103.539128177800237, 1.372738416497811 ], [ 103.541199771581773, 1.364813066031479 ], [ 103.541471466010492, 1.354108050000781 ], [ 103.54389478636746, 1.350740037977805 ], [ 103.54673511440636, 1.34679242832114 ], [ 103.554702198330645, 1.340037398750969 ], [ 103.554702176772977, 1.340037378841457 ], [ 103.555308208225213, 1.339528447790027 ], [ 103.555308244187472, 1.33952841705683 ], [ 103.581427174063961, 1.313780347073171 ], [ 103.607545445280422, 1.288031821488053 ], [ 103.614449943871875, 1.314052450887175 ], [ 103.615366418636228, 1.315163435885945 ], [ 103.616116548519699, 1.321357732230607 ], [ 103.628337407476934, 1.340801466323794 ], [ 103.628337436210217, 1.340801516988341 ], [ 103.633836816198823, 1.351773219709186 ], [ 103.635919916115867, 1.357134112850715 ], [ 103.639169513804333, 1.362717294874485 ], [ 103.644493621668431, 1.373580216849405 ], [ 103.647474157940408, 1.379660985262433 ], [ 103.651251617967432, 1.38682732246452 ], [ 103.65177921920629, 1.391021621620064 ], [ 103.651779246142453, 1.391021674092858 ], [ 103.655445512248392, 1.400160084614004 ], [ 103.662194888162063, 1.410215233134936 ], [ 103.662194911514845, 1.410215262089514 ], [ 103.667722115660609, 1.41549273025975 ], [ 103.672166133802833, 1.42788102277401 ], [ 103.681609645540831, 1.436991644791918 ], [ 103.692330670460933, 1.439630278435117 ], [ 103.695136427167412, 1.441625147491198 ], [ 103.697135949473861, 1.44304678366199 ], [ 103.697135978214121, 1.443046825281693 ], [ 103.702024428799135, 1.450518556867582 ], [ 103.707162386090005, 1.453838397200933 ], [ 103.712384505631832, 1.457212596685448 ], [ 103.721488684243823, 1.458919623324436 ], [ 103.721488713000838, 1.458919628764256 ], [ 103.726605232401056, 1.459878953795377 ], [ 103.730517041249627, 1.457993918213067 ], [ 103.73807613262197, 1.45435128326769 ], [ 103.745047788912359, 1.45012918562574 ], [ 103.758962920947127, 1.448129053149497 ], [ 103.764437670579682, 1.450435794099807 ], [ 103.76938953414377, 1.452522202894045 ], [ 103.778849346913105, 1.458563155588271 ], [ 103.788737925630727, 1.46487783601644 ], [ 103.789895309081984, 1.465874665900071 ], [ 103.801930994607801, 1.476238069340455 ], [ 103.801931030550321, 1.476238087445104 ], [ 103.81092990896444, 1.478209988557968 ], [ 103.810929946711809, 1.478209988573217 ], [ 103.820429059382136, 1.476432244457839 ], [ 103.83242781177114, 1.472737772821663 ], [ 103.832427845928393, 1.472737760172075 ], [ 103.850259371693269, 1.46590458150715 ], [ 103.85692547925666, 1.462682427502727 ], [ 103.863230153937906, 1.458599294196412 ], [ 103.86642453022597, 1.456266076020885 ], [ 103.873284822393856, 1.448710943772157 ], [ 103.884394711862839, 1.43487832258872 ], [ 103.884394738833265, 1.434878299081542 ], [ 103.896115810670878, 1.427684225994024 ], [ 103.911003203329045, 1.427267417492189 ], [ 103.912916915765692, 1.426863819693687 ], [ 103.915086160581538, 1.426406327072282 ], [ 103.921585729170616, 1.427989491293494 ], [ 103.921585757927531, 1.427989498539498 ], [ 103.931667857951567, 1.430155875037202 ], [ 103.935945164800103, 1.430211342176754 ], [ 103.940778172567406, 1.42757254046022 ], [ 103.940778204925351, 1.427572529617107 ], [ 103.942958721293351, 1.427033419938864 ], [ 103.950777213908694, 1.425100360634088 ], [ 103.953492051563842, 1.424590334735773 ], [ 103.953519160748215, 1.424585242333009 ], [ 103.955804383227033, 1.424155922527292 ], [ 103.957075949157243, 1.424292154302473 ], [ 103.957094065138094, 1.424294094117524 ], [ 103.958915220194925, 1.424489203212131 ], [ 103.958915250757627, 1.424489185132108 ], [ 103.965053438315238, 1.421906027648896 ], [ 103.970664259938346, 1.421683742265652 ], [ 103.975074050493347, 1.423137325352857 ], [ 103.975074091830365, 1.423137339838223 ], [ 103.97816344482554, 1.424155686913579 ], [ 103.980243511733789, 1.42407685558812 ], [ 103.981829705436283, 1.424016740072507 ], [ 103.984412851401189, 1.42465550240323 ], [ 103.987273597888688, 1.424516601482364 ], [ 103.991162196404687, 1.424738726184771 ], [ 103.993495270318576, 1.423433214907173 ], [ 103.993495315261839, 1.423433193213118 ], [ 103.996533957426095, 1.422202184652986 ], [ 104.00110565986742, 1.420350099481067 ], [ 104.005281540153391, 1.424134505176284 ], [ 104.021548105598626, 1.438875958680935 ], [ 104.025409512256729, 1.440146443901414 ], [ 104.025486627388716, 1.440171816673159 ], [ 104.027897176282423, 1.44096495119993 ], [ 104.02571897949403, 1.450425119053008 ], [ 104.025227253954, 1.463919137500101 ], [ 104.025213720427985, 1.467787538146887 ], [ 104.025213679085979, 1.467787536325441 ], [ 104.025169016318998, 1.480512504896879 ], [ 104.025167898967595, 1.48083764412105 ], [ 104.025168062539592, 1.48083764959718 ], [ 104.025158250911332, 1.483642005908532 ], [ 104.022159245412396, 1.505635041285422 ], [ 104.020362007379759, 1.529374101545596 ], [ 104.019740332045401, 1.550339299872161 ], [ 104.009759460234704, 1.570912012159129 ], [ 103.993665033509188, 1.587670066841587 ], [ 103.979054834646192, 1.599672628498005 ], [ 103.971752100492637, 1.616326601964574 ], [ 103.972729281947238, 1.632489147337575 ], [ 103.97394913295696, 1.642529303337289 ], [ 103.969496781404544, 1.643468027543814 ], [ 103.959534026292317, 1.645568551460653 ], [ 103.958159654687435, 1.645829916354607 ], [ 103.956680271959371, 1.646688933796402 ], [ 103.955542685742188, 1.648578252953749 ], [ 103.954860075482458, 1.650009552619977 ], [ 103.952754610704588, 1.651383929759864 ], [ 103.944922609569304, 1.652428278126163 ], [ 103.941011973886319, 1.653624331107432 ], [ 103.938678813293365, 1.654197272284747 ], [ 103.936231798827478, 1.6543121942604 ], [ 103.935297641145993, 1.654362350365732 ], [ 103.934578084587102, 1.654386617735915 ], [ 103.933773057313772, 1.654298453890265 ], [ 103.932010784359647, 1.654314666751189 ], [ 103.930811575545533, 1.654797514431263 ], [ 103.930043630988663, 1.655087338860451 ], [ 103.929537486304014, 1.655571294848277 ], [ 103.928673731513811, 1.656228584185568 ], [ 103.927830952750142, 1.65692828374028 ], [ 103.927367366394023, 1.657521963446654 ], [ 103.927174183173804, 1.658233334823136 ], [ 103.927039283213432, 1.659028954297045 ], [ 103.926920696120064, 1.659568332905756 ], [ 103.927110509503066, 1.660713008819671 ], [ 103.927830354992849, 1.662162772875522 ], [ 103.928505450407172, 1.663171657431416 ], [ 103.928698515071304, 1.66363739574644 ], [ 103.928438376423586, 1.663957687733203 ], [ 103.92738499261776, 1.664592409284989 ], [ 103.92700588490861, 1.665080061600897 ], [ 103.926689939087538, 1.665461774991128 ], [ 103.925994507926234, 1.666076623121534 ], [ 103.925033950774107, 1.666880511462628 ], [ 103.924890624548738, 1.667049400901953 ], [ 103.92469116434674, 1.667197119534493 ], [ 103.924481555070372, 1.667337909661135 ], [ 103.924198225571828, 1.667482134350812 ], [ 103.923999076714637, 1.667499853781212 ], [ 103.923783868762726, 1.667488046240918 ], [ 103.923453323381324, 1.667271873558135 ], [ 103.923213409434197, 1.666989193812997 ], [ 103.923114401676273, 1.666739833467557 ], [ 103.923023379410452, 1.666340765711769 ], [ 103.92292404252494, 1.665958328876048 ], [ 103.922866000547657, 1.665625714192508 ], [ 103.922783344126827, 1.665392897612715 ], [ 103.922535696118587, 1.664973773925401 ], [ 103.922185989983817, 1.664541728444451 ], [ 103.921871143753691, 1.664245079928775 ], [ 103.92163280408343, 1.664088649711962 ], [ 103.921427108062275, 1.66381502153302 ], [ 103.921078674902773, 1.663542592694295 ], [ 103.920857913583561, 1.663440878580532 ], [ 103.920578898666776, 1.663421549678247 ], [ 103.92032175952798, 1.663402420265494 ], [ 103.920067729689464, 1.663487617653854 ], [ 103.919804137329095, 1.663605504074103 ], [ 103.919525471671022, 1.663789345294018 ], [ 103.91938336833114, 1.663951121714248 ], [ 103.91920829712349, 1.664195769895586 ], [ 103.919117375582232, 1.664397370016646 ], [ 103.919108198914515, 1.66471823122802 ], [ 103.9191418247201, 1.664896126979386 ], [ 103.919311104576352, 1.665048493398515 ], [ 103.9195722809919, 1.665248104102089 ], [ 103.919741900349564, 1.665503739872428 ], [ 103.919906889583245, 1.665752450892948 ], [ 103.920058336657704, 1.666063560768141 ], [ 103.920245831678614, 1.6663514141242 ], [ 103.920406184294933, 1.666555605477438 ], [ 103.920470367671413, 1.666813799647321 ], [ 103.920524035993054, 1.666976029220376 ], [ 103.920524071769478, 1.667191699662142 ], [ 103.920433779193829, 1.66737339731783 ], [ 103.920342532420449, 1.667425961915337 ], [ 103.920271926440961, 1.667468531817674 ], [ 103.920008334019201, 1.667457091973481 ], [ 103.91971419502849, 1.66739592957233 ], [ 103.919416983717028, 1.667376016936519 ], [ 103.919179588263574, 1.667366125772089 ], [ 103.919030665684076, 1.66737559176432 ], [ 103.918828109883165, 1.667435133803127 ], [ 103.918767719326894, 1.667541073364336 ], [ 103.918644455437814, 1.667947565118248 ], [ 103.918497770691744, 1.668274338015086 ], [ 103.918351058376786, 1.668490341460638 ], [ 103.91813372036782, 1.66860545643091 ], [ 103.917902194183725, 1.668672104689545 ], [ 103.917649680250591, 1.668672110469976 ], [ 103.917407048135658, 1.668682311718857 ], [ 103.917142211146555, 1.668682313032984 ], [ 103.916892488968443, 1.668682417397128 ], [ 103.916732779077464, 1.668735917943027 ], [ 103.916483086937973, 1.668900441560591 ], [ 103.916246650455179, 1.669188143705864 ], [ 103.916074970881695, 1.66937087030786 ], [ 103.915925783781944, 1.669558700928007 ], [ 103.915871855248213, 1.669757334671355 ], [ 103.91586264246574, 1.669990502172349 ], [ 103.915928045720491, 1.670244273883471 ], [ 103.916005768554029, 1.670390936588372 ], [ 103.916087820828537, 1.670576541632365 ], [ 103.916140552307624, 1.67069290529496 ], [ 103.916188681757646, 1.670849941137161 ], [ 103.916148936538036, 1.671049540546523 ], [ 103.916021940921397, 1.671163052230679 ], [ 103.915897391571349, 1.671191085344414 ], [ 103.91577345569452, 1.671177098937954 ], [ 103.915637466624943, 1.671086185399365 ], [ 103.915601983315668, 1.670895115700956 ], [ 103.915556329704472, 1.670757312338493 ], [ 103.915481390009248, 1.670640265948192 ], [ 103.915380564452548, 1.670582345080253 ], [ 103.915191873413974, 1.670607086295006 ], [ 103.91502973084684, 1.670706930900408 ], [ 103.914844761036505, 1.670863593805501 ], [ 103.914720243762829, 1.67098893360997 ], [ 103.914555925903954, 1.671099067054176 ], [ 103.914365705205967, 1.671184094771096 ], [ 103.914100587055557, 1.671286690050386 ], [ 103.913895564702429, 1.671365366394999 ], [ 103.913751599789492, 1.67145598783246 ], [ 103.913625542426516, 1.671609979950461 ], [ 103.913566050100428, 1.671746880898513 ], [ 103.913566108627933, 1.672017840160714 ], [ 103.913598204162824, 1.672200927314796 ], [ 103.913534124190519, 1.672459365084008 ], [ 103.913492840541238, 1.67268742687174 ], [ 103.913416720084371, 1.672899128106017 ], [ 103.91331285071881, 1.67298899326721 ], [ 103.913158402984351, 1.673014900723206 ], [ 103.912947807486518, 1.672992612190752 ], [ 103.912756329901541, 1.672936006315114 ], [ 103.912608022146884, 1.672832779615343 ], [ 103.912476658811215, 1.672700618425151 ], [ 103.912348408492818, 1.672666244487049 ], [ 103.911992300620156, 1.672596695528653 ], [ 103.91181563574149, 1.672586246403785 ], [ 103.911616757755979, 1.672523002296202 ], [ 103.911408034543456, 1.672473119602194 ], [ 103.911275458759675, 1.672444610660586 ], [ 103.911155817928488, 1.672444567555126 ], [ 103.911045748208537, 1.672453855156824 ], [ 103.910974860327002, 1.672474213555152 ], [ 103.910839190923937, 1.672485606653012 ], [ 103.910697699593811, 1.672474690716302 ], [ 103.910575583428368, 1.67245426273579 ], [ 103.910471060861369, 1.672444704209743 ], [ 103.910362234824632, 1.672444762641797 ], [ 103.910283013863108, 1.672462426198429 ], [ 103.910134099110735, 1.672509294617464 ], [ 103.910004632319172, 1.672589535459242 ], [ 103.909909669764218, 1.67262546252943 ], [ 103.909783879863809, 1.672648398804772 ], [ 103.909680596057612, 1.672648457389523 ], [ 103.90960783475137, 1.672639199726562 ], [ 103.909523051967014, 1.672656284167808 ] ] ] } }
]
}
