{
"type": "FeatureCollection",
"name": "JB_Hospitals_All_15",
"crs": { "type": "name", "properties": { "name": "urn:ogc:def:crs:OGC:1.3:CRS84" } },
"features": [
{ "type": "Feature", "properties": { "facility_id": "HOSP_001", "facility_name": "Hospital Sultanah Aminah Johor Bahru", "ownership": "PUBLIC", "facility_group": "HOSPITAL", "facility_class": "H1_ACUTE_EMERGENCY", "destination_role": "PUBLIC_ACUTE_EMERGENCY_HOSPITAL", "acute_emergency_destination": true, "primary_care_destination": false, "include_primary_accessibility": true, "licensed_beds": null, "operator_group": "Ministry of Health Malaysia", "address": "Jalan Persiaran Abu Bakar Sultan, 80100 Johor Bahru, Johor, Malaysia", "phone": "07-2231666", "latitude": 1.46019, "longitude": 103.74671, "coordinate_source": "OpenStreetMap centroid via Mapcarta; official HSA location page cross-check", "coordinate_quality": "A", "service_evidence_grade": "", "official_source": "https://jknjohor.moh.gov.my/jknj/hospital/", "source_step": "D04-A1", "source_checked_date": "2026-10-04", "coordinate_review_flag": false, "service_review_flag": false, "review_reason": "", "inside_jb_district": true, "network_snap_status": "NOT_YET_SNAPPED", "any_review_flag": false }, "geometry": { "type": "Point", "coordinates": [ 103.74671, 1.46019 ] } },
{ "type": "Feature", "properties": { "facility_id": "HOSP_002", "facility_name": "Hospital Sultan Ismail Johor Bahru", "ownership": "PUBLIC", "facility_group": "HOSPITAL", "facility_class": "H1_ACUTE_EMERGENCY", "destination_role": "PUBLIC_ACUTE_EMERGENCY_HOSPITAL", "acute_emergency_destination": true, "primary_care_destination": false, "include_primary_accessibility": true, "licensed_beds": null, "operator_group": "Ministry of Health Malaysia", "address": "Jalan Persiaran Mutiara Emas Utama, Taman Mount Austin, 81110 Johor Bahru, Johor, Malaysia", "phone": "07-3565000", "latitude": 1.54782, "longitude": 103.79096, "coordinate_source": "OpenStreetMap centroid via Mapcarta; official HSI website address cross-check", "coordinate_quality": "A", "service_evidence_grade": "", "official_source": "https://jknjohor.moh.gov.my/jknj/hospital/", "source_step": "D04-A1", "source_checked_date": "2026-10-04", "coordinate_review_flag": false, "service_review_flag": false, "review_reason": "", "inside_jb_district": true, "network_snap_status": "NOT_YET_SNAPPED", "any_review_flag": false }, "geometry": { "type": "Point", "coordinates": [ 103.79096, 1.54782 ] } },
{ "type": "Feature", "properties": { "facility_id": "HOSP_003", "facility_name": "Hospital Pasir Gudang", "ownership": "PUBLIC", "facility_group": "HOSPITAL", "facility_class": "H1_ACUTE_EMERGENCY", "destination_role": "PUBLIC_ACUTE_EMERGENCY_HOSPITAL", "acute_emergency_destination": true, "primary_care_destination": false, "include_primary_accessibility": true, "licensed_beds": null, "operator_group": "Ministry of Health Malaysia", "address": "Jalan Puncak 1, 81700 Pasir Gudang, Johor Darul Ta'zim", "phone": "07-2981000", "latitude": 1.51405, "longitude": 103.86079, "coordinate_source": "OpenStreetMap centroid via Mapcarta; official HPG address cross-check", "coordinate_quality": "A", "service_evidence_grade": "", "official_source": "https://jknjohor.moh.gov.my/hpg/", "source_step": "D04-A1", "source_checked_date": "2026-10-04", "coordinate_review_flag": false, "service_review_flag": false, "review_reason": "", "inside_jb_district": true, "network_snap_status": "NOT_YET_SNAPPED", "any_review_flag": false }, "geometry": { "type": "Point", "coordinates": [ 103.86079, 1.51405 ] } },
{ "type": "Feature", "properties": { "facility_id": "HOSP_004", "facility_name": "Hospital Permai Johor Bahru", "ownership": "PUBLIC", "facility_group": "HOSPITAL", "facility_class": "H2_SPECIAL_PURPOSE_PSYCHIATRIC", "destination_role": "SPECIAL_PURPOSE_PSYCHIATRIC_HOSPITAL", "acute_emergency_destination": false, "primary_care_destination": false, "include_primary_accessibility": false, "licensed_beds": null, "operator_group": "Ministry of Health Malaysia", "address": "Persiaran Kempas Baru, Kempas Banjaran, 81200 Johor Bahru, Johor, Malaysia", "phone": "07-2311000", "latitude": 1.5217, "longitude": 103.70597, "coordinate_source": "OpenStreetMap centroid via Mapcarta; official Hospital Permai address cross-check", "coordinate_quality": "A", "service_evidence_grade": "", "official_source": "https://jknjohor.moh.gov.my/jknj/hospital/", "source_step": "D04-A1", "source_checked_date": "2026-10-04", "coordinate_review_flag": false, "service_review_flag": false, "review_reason": "", "inside_jb_district": true, "network_snap_status": "NOT_YET_SNAPPED", "any_review_flag": false }, "geometry": { "type": "Point", "coordinates": [ 103.70597, 1.5217 ] } },
{ "type": "Feature", "properties": { "facility_id": "PRIV_001", "facility_name": "Columbia Asia Hospital Tebrau", "ownership": "PRIVATE", "facility_group": "PRIVATE_HOSPITAL", "facility_class": "P1_PRIVATE_ACUTE_EMERGENCY", "destination_role": "PRIVATE_ACUTE_EMERGENCY_HOSPITAL", "acute_emergency_destination": true, "primary_care_destination": false, "include_primary_accessibility": true, "licensed_beds": 151.0, "operator_group": "Columbia Asia", "address": "Persiaran Southkey 5, Kota Southkey, 80150 Johor Bahru, Johor", "phone": "+607-2729999", "latitude": 1.497305, "longitude": 103.7755675, "coordinate_source": "Tokio Marine hospital locator; cross-checked against current business listing and official Columbia Asia address", "coordinate_quality": "A_CROSS_VALIDATED", "service_evidence_grade": "VERIFIED_A", "official_source": "https://www.columbiaasia.com/malaysia/hospitals/tebrau/", "source_step": "D04-B", "source_checked_date": "2026-10-04", "coordinate_review_flag": false, "service_review_flag": false, "review_reason": "", "inside_jb_district": true, "network_snap_status": "NOT_YET_SNAPPED", "any_review_flag": false }, "geometry": { "type": "Point", "coordinates": [ 103.7755675, 1.497305 ] } },
{ "type": "Feature", "properties": { "facility_id": "PRIV_002", "facility_name": "Columbia Asia Hospital Iskandar Puteri", "ownership": "PRIVATE", "facility_group": "PRIVATE_HOSPITAL", "facility_class": "P1_PRIVATE_ACUTE_EMERGENCY", "destination_role": "PRIVATE_ACUTE_EMERGENCY_HOSPITAL", "acute_emergency_destination": true, "primary_care_destination": false, "include_primary_accessibility": true, "licensed_beds": 164.0, "operator_group": "Columbia Asia", "address": "Persiaran Afiat, Taman Kesihatan Afiat, 79250 Iskandar Puteri, Johor", "phone": "+607-2339999", "latitude": 1.47896, "longitude": 103.63685, "coordinate_source": "OpenStreetMap/Mapcarta hospital centroid; cross-checked against Tokio Marine and official Columbia Asia address", "coordinate_quality": "A_CROSS_VALIDATED", "service_evidence_grade": "VERIFIED_A", "official_source": "https://www.columbiaasia.com/malaysia/hospitals/iskandar-puteri/", "source_step": "D04-B", "source_checked_date": "2026-10-04", "coordinate_review_flag": false, "service_review_flag": false, "review_reason": "", "inside_jb_district": true, "network_snap_status": "NOT_YET_SNAPPED", "any_review_flag": false }, "geometry": { "type": "Point", "coordinates": [ 103.63685, 1.47896 ] } },
{ "type": "Feature", "properties": { "facility_id": "PRIV_003", "facility_name": "Gleneagles Hospital Johor", "ownership": "PRIVATE", "facility_group": "PRIVATE_HOSPITAL", "facility_class": "P1_PRIVATE_ACUTE_EMERGENCY", "destination_role": "PRIVATE_ACUTE_EMERGENCY_HOSPITAL", "acute_emergency_destination": true, "primary_care_destination": false, "include_primary_accessibility": true, "licensed_beds": 213.0, "operator_group": "IHH Healthcare / Gleneagles", "address": "No. 2, Jalan Medini Utara 4, Medini Iskandar, 79250 Iskandar Puteri, Johor", "phone": "+607-5601000", "latitude": 1.42604, "longitude": 103.63635, "coordinate_source": "OpenStreetMap/Mapcarta hospital centroid; cross-checked against hospital address", "coordinate_quality": "A_CROSS_VALIDATED", "service_evidence_grade": "VERIFIED_A", "official_source": "https://gleneagles.com.my/johor/accident-emergency", "source_step": "D04-B", "source_checked_date": "2026-10-04", "coordinate_review_flag": false, "service_review_flag": false, "review_reason": "", "inside_jb_district": true, "network_snap_status": "NOT_YET_SNAPPED", "any_review_flag": false }, "geometry": { "type": "Point", "coordinates": [ 103.63635, 1.42604 ] } },
{ "type": "Feature", "properties": { "facility_id": "PRIV_004", "facility_name": "KPJ Johor Specialist Hospital", "ownership": "PRIVATE", "facility_group": "PRIVATE_HOSPITAL", "facility_class": "P1_PRIVATE_ACUTE_EMERGENCY", "destination_role": "PRIVATE_ACUTE_EMERGENCY_HOSPITAL", "acute_emergency_destination": true, "primary_care_destination": false, "include_primary_accessibility": true, "licensed_beds": 282.0, "operator_group": "KPJ Healthcare", "address": "39-B, Jalan Abdul Samad, 80100 Johor Bahru, Johor", "phone": "+607-2253000", "latitude": 1.47599, "longitude": 103.74112, "coordinate_source": "OpenStreetMap/Mapcarta hospital centroid; official KPJ address cross-check", "coordinate_quality": "A_CROSS_VALIDATED", "service_evidence_grade": "VERIFIED_B", "official_source": "https://healthtourism.kpjhealth.com.my/bd/", "source_step": "D04-B", "source_checked_date": "2026-10-04", "coordinate_review_flag": false, "service_review_flag": true, "review_reason": "Emergency relevance retained, but explicit current official 24-hour A&E webpage was not located in D04-B audit.", "inside_jb_district": true, "network_snap_status": "NOT_YET_SNAPPED", "any_review_flag": true }, "geometry": { "type": "Point", "coordinates": [ 103.74112, 1.47599 ] } },
{ "type": "Feature", "properties": { "facility_id": "PRIV_005", "facility_name": "Hospital Penawar", "ownership": "PRIVATE", "facility_group": "PRIVATE_HOSPITAL", "facility_class": "P1_PRIVATE_ACUTE_EMERGENCY", "destination_role": "PRIVATE_ACUTE_EMERGENCY_HOSPITAL", "acute_emergency_destination": true, "primary_care_destination": false, "include_primary_accessibility": true, "licensed_beds": 40.0, "operator_group": "Penawar Healthcare Group", "address": "No. 17 & 18 (A-D), Pusat Perniagaan Pasir Gudang, 81700 Pasir Gudang, Johor", "phone": "+607-2521800", "latitude": 1.468474, "longitude": 103.9041072, "coordinate_source": "Tokio Marine hospital locator; official Hospital Penawar address cross-check", "coordinate_quality": "A_CROSS_VALIDATED", "service_evidence_grade": "VERIFIED_A", "official_source": "https://www.hospitalpenawar.com/", "source_step": "D04-B", "source_checked_date": "2026-10-04", "coordinate_review_flag": false, "service_review_flag": false, "review_reason": "", "inside_jb_district": true, "network_snap_status": "NOT_YET_SNAPPED", "any_review_flag": false }, "geometry": { "type": "Point", "coordinates": [ 103.9041072, 1.468474 ] } },
{ "type": "Feature", "properties": { "facility_id": "PRIV_006", "facility_name": "Kempas Medical Centre", "ownership": "PRIVATE", "facility_group": "PRIVATE_HOSPITAL", "facility_class": "P1_PRIVATE_ACUTE_EMERGENCY", "destination_role": "PRIVATE_ACUTE_EMERGENCY_HOSPITAL", "acute_emergency_destination": true, "primary_care_destination": false, "include_primary_accessibility": true, "licensed_beds": 47.0, "operator_group": "Kempas Views Sdn. Bhd.", "address": "Lot PTD 7522, Jalan Kempas Baru, 81200 Johor Bahru, Johor", "phone": "+607-2368999", "latitude": 1.5217869, "longitude": 103.7246168, "coordinate_source": "Tokio Marine hospital locator; official Kempas Medical Centre address cross-check", "coordinate_quality": "A_CROSS_VALIDATED", "service_evidence_grade": "VERIFIED_A", "official_source": "https://www.kempasmedical.com/en/facilities/accident-emergency", "source_step": "D04-B", "source_checked_date": "2026-10-04", "coordinate_review_flag": false, "service_review_flag": false, "review_reason": "", "inside_jb_district": true, "network_snap_status": "NOT_YET_SNAPPED", "any_review_flag": false }, "geometry": { "type": "Point", "coordinates": [ 103.724616800000021, 1.521786900000011 ] } },
{ "type": "Feature", "properties": { "facility_id": "PRIV_007", "facility_name": "Kensington Hospital Johor", "ownership": "PRIVATE", "facility_group": "PRIVATE_HOSPITAL", "facility_class": "P1_PRIVATE_ACUTE_EMERGENCY", "destination_role": "PRIVATE_ACUTE_EMERGENCY_HOSPITAL", "acute_emergency_destination": true, "primary_care_destination": false, "include_primary_accessibility": true, "licensed_beds": 22.0, "operator_group": "Kensington Green Specialist Centre Sdn. Bhd.", "address": "No. 2, Jalan Ceria 20, Taman Nusa Indah, Iskandar Puteri, 79100 Johor, Malaysia", "phone": "+607-2133899", "latitude": 1.4776669, "longitude": 103.6315349, "coordinate_source": "Tokio Marine hospital locator; official Kensington Hospital Johor address cross-check", "coordinate_quality": "A_CROSS_VALIDATED", "service_evidence_grade": "VERIFIED_A", "official_source": "https://www.kgsc.com.my/medical-departments", "source_step": "D04-B", "source_checked_date": "2026-10-04", "coordinate_review_flag": false, "service_review_flag": false, "review_reason": "", "inside_jb_district": true, "network_snap_status": "NOT_YET_SNAPPED", "any_review_flag": false }, "geometry": { "type": "Point", "coordinates": [ 103.6315349, 1.4776669 ] } },
{ "type": "Feature", "properties": { "facility_id": "PRIV_008", "facility_name": "KPJ Bandar Dato' Onn Specialist Hospital", "ownership": "PRIVATE", "facility_group": "PRIVATE_HOSPITAL", "facility_class": "P1_PRIVATE_ACUTE_EMERGENCY", "destination_role": "PRIVATE_ACUTE_EMERGENCY_HOSPITAL", "acute_emergency_destination": true, "primary_care_destination": false, "include_primary_accessibility": true, "licensed_beds": 130.0, "operator_group": "KPJ Healthcare", "address": "No. 2, Jalan Bukit Mutiara, Taman Bukit Mutiara, 81100 Johor Bahru, Johor", "phone": "+607-3011000", "latitude": 1.54429, "longitude": 103.74026, "coordinate_source": "OpenStreetMap/Mapcarta hospital centroid; official KPJ/current MMC address cross-check", "coordinate_quality": "A_CROSS_VALIDATED", "service_evidence_grade": "VERIFIED_A", "official_source": "https://jcorp.wd102.myworkdayjobs.com/KPJ/job/Bandar-Dato-Onn-Specialist-Hospital/MEDICAL-OFFICER--ACCIDENT---EMERGENCY_JR000002875", "source_step": "D04-B", "source_checked_date": "2026-10-04", "coordinate_review_flag": false, "service_review_flag": false, "review_reason": "", "inside_jb_district": true, "network_snap_status": "NOT_YET_SNAPPED", "any_review_flag": false }, "geometry": { "type": "Point", "coordinates": [ 103.74026, 1.54429 ] } },
{ "type": "Feature", "properties": { "facility_id": "PRIV_009", "facility_name": "KPJ Puteri Specialist Hospital", "ownership": "PRIVATE", "facility_group": "PRIVATE_HOSPITAL", "facility_class": "P1_PRIVATE_ACUTE_EMERGENCY", "destination_role": "PRIVATE_ACUTE_EMERGENCY_HOSPITAL", "acute_emergency_destination": true, "primary_care_destination": false, "include_primary_accessibility": true, "licensed_beds": 147.0, "operator_group": "KPJ Healthcare", "address": "No. 33, Jalan Tun Abdul Razak (Susur 5), 80350 Johor Bahru, Johor", "phone": "+607-2253222", "latitude": 1.49046, "longitude": 103.74219, "coordinate_source": "OpenStreetMap/Mapcarta hospital centroid; official KPJ address cross-check", "coordinate_quality": "A_CROSS_VALIDATED", "service_evidence_grade": "VERIFIED_B", "official_source": "https://healthtourism.kpjhealth.com.my/bd/", "source_step": "D04-B", "source_checked_date": "2026-10-04", "coordinate_review_flag": false, "service_review_flag": true, "review_reason": "Emergency relevance retained, but explicit current official 24-hour A&E webpage was not located in D04-B audit.", "inside_jb_district": true, "network_snap_status": "NOT_YET_SNAPPED", "any_review_flag": true }, "geometry": { "type": "Point", "coordinates": [ 103.74219, 1.49046 ] } },
{ "type": "Feature", "properties": { "facility_id": "PRIV_010", "facility_name": "KPJ Pasir Gudang Specialist Hospital", "ownership": "PRIVATE", "facility_group": "PRIVATE_HOSPITAL", "facility_class": "P1_PRIVATE_ACUTE_EMERGENCY", "destination_role": "PRIVATE_ACUTE_EMERGENCY_HOSPITAL", "acute_emergency_destination": true, "primary_care_destination": false, "include_primary_accessibility": true, "licensed_beds": 148.0, "operator_group": "KPJ Healthcare", "address": "Lot PTD 204781, Jalan Persiaran Dahlia 2, Taman Bukit Dahlia, 81700 Pasir Gudang, Johor", "phone": "+607-2573999", "latitude": 1.47713, "longitude": 103.89584, "coordinate_source": "OpenStreetMap/Mapcarta hospital centroid; Tokio Marine and current official address cross-check", "coordinate_quality": "A_CROSS_VALIDATED", "service_evidence_grade": "VERIFIED_A", "official_source": "https://www.kpjhealth.com.my/pasirgudang/", "source_step": "D04-B", "source_checked_date": "2026-10-04", "coordinate_review_flag": false, "service_review_flag": false, "review_reason": "", "inside_jb_district": true, "network_snap_status": "NOT_YET_SNAPPED", "any_review_flag": false }, "geometry": { "type": "Point", "coordinates": [ 103.89584, 1.47713 ] } },
{ "type": "Feature", "properties": { "facility_id": "PRIV_011", "facility_name": "Regency Specialist Hospital", "ownership": "PRIVATE", "facility_group": "PRIVATE_HOSPITAL", "facility_class": "P1_PRIVATE_ACUTE_EMERGENCY", "destination_role": "PRIVATE_ACUTE_EMERGENCY_HOSPITAL", "acute_emergency_destination": true, "primary_care_destination": false, "include_primary_accessibility": true, "licensed_beds": 190.0, "operator_group": "HMI Medical", "address": "No. 1, Jalan Suria, Bandar Seri Alam, 81750 Masai, Johor", "phone": "+607-3817700", "latitude": 1.49802, "longitude": 103.87254, "coordinate_source": "OpenStreetMap/Mapcarta hospital centroid; official Regency address cross-check", "coordinate_quality": "A_CROSS_VALIDATED", "service_evidence_grade": "VERIFIED_A", "official_source": "https://www.regencyspecialist.com/seeking-treatment", "source_step": "D04-B", "source_checked_date": "2026-10-04", "coordinate_review_flag": false, "service_review_flag": false, "review_reason": "", "inside_jb_district": true, "network_snap_status": "NOT_YET_SNAPPED", "any_review_flag": false }, "geometry": { "type": "Point", "coordinates": [ 103.87254, 1.49802 ] } }
]
}
