{
  "type": "FeatureCollection",
  "name": "JB_Flood_All_Closed_Polygons_2016_2021",
  "description": "All 14 formal closed Polygon_ID geometries frozen through 2021; no new Polygon_IDs added during 2022–2026-10-06.",
  "features": [
    {
      "type": "Feature",
      "properties": {
        "Polygon_ID": "PG2016-HSA-CAMPUS",
        "Year": 2016,
        "Polygon_Name": "Hospital Sultanah Aminah Campus",
        "Locality_Area": "Bandar Johor Bahru",
        "Polygon_Area_km2": "0.288325",
        "Geometry_CRS": "EPSG:4326 / WGS 84",
        "Geometry_Source_URL": "https://www.openstreetmap.org/way/566502798",
        "Notes": "Analysis polygon only; do not interpret as exact inundation footprint."
      },
      "geometry": {
        "type": "Polygon",
        "coordinates": [
          [
            [
              103.7452642,
              1.4579464
            ],
            [
              103.7456721,
              1.4578212
            ],
            [
              103.7464042,
              1.4575678
            ],
            [
              103.7470547,
              1.4573944
            ],
            [
              103.7477051,
              1.4572299
            ],
            [
              103.7479165,
              1.4575865
            ],
            [
              103.7481655,
              1.4579855
            ],
            [
              103.7483951,
              1.4583318
            ],
            [
              103.7477773,
              1.4586615
            ],
            [
              103.7477606,
              1.4587658
            ],
            [
              103.7482429,
              1.4597764
            ],
            [
              103.7489085,
              1.4596504
            ],
            [
              103.7494223,
              1.4596228
            ],
            [
              103.7495392,
              1.4596401
            ],
            [
              103.7501815,
              1.4597653
            ],
            [
              103.750075,
              1.4605759
            ],
            [
              103.7500951,
              1.4608581
            ],
            [
              103.7494093,
              1.4615072
            ],
            [
              103.7496102,
              1.461668
            ],
            [
              103.7492937,
              1.4625655
            ],
            [
              103.7490436,
              1.4629333
            ],
            [
              103.7489239,
              1.4631507
            ],
            [
              103.7482867,
              1.4629123
            ],
            [
              103.7473453,
              1.4626658
            ],
            [
              103.7467328,
              1.4624685
            ],
            [
              103.7464697,
              1.4623411
            ],
            [
              103.7456311,
              1.4616014
            ],
            [
              103.7450063,
              1.4610261
            ],
            [
              103.7449081,
              1.4608846
            ],
            [
              103.7446849,
              1.4609038
            ],
            [
              103.7444047,
              1.4610395
            ],
            [
              103.7442152,
              1.4610721
            ],
            [
              103.7441023,
              1.4610269
            ],
            [
              103.7440347,
              1.4609328
            ],
            [
              103.7437527,
              1.4603838
            ],
            [
              103.743505,
              1.4595274
            ],
            [
              103.7433712,
              1.459036
            ],
            [
              103.7432374,
              1.4586232
            ],
            [
              103.7432434,
              1.4585548
            ],
            [
              103.7432621,
              1.4584886
            ],
            [
              103.7432975,
              1.458445
            ],
            [
              103.7433572,
              1.458416
            ],
            [
              103.744471,
              1.458155
            ],
            [
              103.7452642,
              1.4579464
            ]
          ]
        ]
      }
    },
    {
      "type": "Feature",
      "properties": {
        "Polygon_ID": "PG2016-CBD-SEGGET",
        "Year": 2016,
        "Polygon_Name": "Jalan Wong Ah Fook / Sungai Segget Project Corridor",
        "Locality_Area": "Bandar Johor Bahru",
        "Polygon_Area_km2": "0.029149",
        "Geometry_CRS": "EPSG:4326 / WGS 84",
        "Geometry_Source_URL": "https://waterwaymap.org/river/Sungai%20Segget%20004200366310/geometry.geojson",
        "Notes": "Derived analysis-area polygon, not observed flood-water extent. If a higher-authority official project polygon becomes available, retain this geometry for audit and version the replacement."
      },
      "geometry": {
        "type": "Polygon",
        "coordinates": [
          [
            [
              103.7616988,
              1.4650215
            ],
            [
              103.7617905,
              1.4648775
            ],
            [
              103.7620707,
              1.4643301
            ],
            [
              103.7626501,
              1.4633174
            ],
            [
              103.7632366,
              1.4621273
            ],
            [
              103.7638586,
              1.4609823
            ],
            [
              103.7642726,
              1.4601424
            ],
            [
              103.7644817,
              1.4597591
            ],
            [
              103.7645631,
              1.4595921
            ],
            [
              103.7646674,
              1.4592804
            ],
            [
              103.7650213,
              1.4586255
            ],
            [
              103.7651644,
              1.4584093
            ],
            [
              103.765603,
              1.4575897
            ],
            [
              103.765746,
              1.4574105
            ],
            [
              103.7662775,
              1.4568978
            ],
            [
              103.7665951,
              1.4566239
            ],
            [
              103.7664489,
              1.4564521
            ],
            [
              103.7661265,
              1.4567302
            ],
            [
              103.76558,
              1.4572575
            ],
            [
              103.765415,
              1.4574643
            ],
            [
              103.7649716,
              1.4582927
            ],
            [
              103.7648287,
              1.4585085
            ],
            [
              103.7644606,
              1.4591896
            ],
            [
              103.7643549,
              1.4595059
            ],
            [
              103.7642823,
              1.4596549
            ],
            [
              103.7640734,
              1.4600376
            ],
            [
              103.7636594,
              1.4608777
            ],
            [
              103.7630374,
              1.4620227
            ],
            [
              103.7624519,
              1.4632106
            ],
            [
              103.7618733,
              1.4642219
            ],
            [
              103.7615955,
              1.4647645
            ],
            [
              103.7615052,
              1.4649065
            ],
            [
              103.7611712,
              1.4655282
            ],
            [
              103.7613688,
              1.4656358
            ],
            [
              103.7616988,
              1.4650215
            ]
          ]
        ]
      }
    },
    {
      "type": "Feature",
      "properties": {
        "Polygon_ID": "PG2017-KIPMALL-TAMPOI",
        "Year": 2017,
        "Polygon_Name": "KIPMall Tampoi Building",
        "Locality_Area": "Taman Tampoi Indah",
        "Polygon_Area_km2": "0.018912",
        "Geometry_CRS": "EPSG:4326 / WGS 84",
        "Geometry_Source_URL": "https://www.openstreetmap.org/way/231526258",
        "Notes": "Facility polygon only; do not interpret as the full inundated area."
      },
      "geometry": {
        "type": "Polygon",
        "coordinates": [
          [
            [
              103.6864267,
              1.5092543
            ],
            [
              103.6871319,
              1.5096164
            ],
            [
              103.6871128,
              1.5096537
            ],
            [
              103.6871843,
              1.5096904
            ],
            [
              103.6872004,
              1.509659
            ],
            [
              103.6872606,
              1.5096899
            ],
            [
              103.6879857,
              1.5082787
            ],
            [
              103.6878943,
              1.5082318
            ],
            [
              103.6879157,
              1.5081902
            ],
            [
              103.6871667,
              1.5078056
            ],
            [
              103.6869996,
              1.5081308
            ],
            [
              103.6869402,
              1.5081003
            ],
            [
              103.6868982,
              1.508182
            ],
            [
              103.6869611,
              1.5082143
            ],
            [
              103.6864267,
              1.5092543
            ]
          ]
        ]
      }
    },
    {
      "type": "Feature",
      "properties": {
        "Polygon_ID": "PG2017-KANGKAR-TEBRAU",
        "Year": 2017,
        "Polygon_Name": "Kampung Kangkar Tebrau Residential Area",
        "Locality_Area": "Tebrau",
        "Polygon_Area_km2": "0.370071",
        "Geometry_CRS": "EPSG:4326 / WGS 84",
        "Geometry_Source_URL": "https://www.openstreetmap.org/way/657910839",
        "Notes": "Community analysis polygon; not automatically the exact inundation footprint."
      },
      "geometry": {
        "type": "Polygon",
        "coordinates": [
          [
            [
              103.7572469,
              1.5348636
            ],
            [
              103.7602739,
              1.5317088
            ],
            [
              103.7577665,
              1.5298698
            ],
            [
              103.7563327,
              1.5291569
            ],
            [
              103.7546713,
              1.5286753
            ],
            [
              103.7530933,
              1.528664
            ],
            [
              103.7515001,
              1.5292593
            ],
            [
              103.7518415,
              1.5314017
            ],
            [
              103.7524902,
              1.531542
            ],
            [
              103.7532488,
              1.5319212
            ],
            [
              103.7562758,
              1.5341091
            ],
            [
              103.7572469,
              1.5348636
            ]
          ]
        ]
      }
    },
    {
      "type": "Feature",
      "properties": {
        "Polygon_ID": "PG2017-TUAH-JAYA",
        "Year": 2017,
        "Polygon_Name": "Kampung Tuah Jaya Residential Area",
        "Locality_Area": "Skudai / Mukim Pulai",
        "Polygon_Area_km2": "0.127928",
        "Geometry_CRS": "EPSG:4326 / WGS 84",
        "Geometry_Source_URL": "https://www.openstreetmap.org/way/473550504",
        "Notes": "Community analysis polygon; not automatically the exact inundation footprint."
      },
      "geometry": {
        "type": "Polygon",
        "coordinates": [
          [
            [
              103.6738487,
              1.47945
            ],
            [
              103.6739347,
              1.4799031
            ],
            [
              103.6741557,
              1.4810677
            ],
            [
              103.6742456,
              1.4811465
            ],
            [
              103.6744329,
              1.4810895
            ],
            [
              103.6749258,
              1.4808297
            ],
            [
              103.6750639,
              1.4807181
            ],
            [
              103.6752499,
              1.4809571
            ],
            [
              103.6760786,
              1.4803198
            ],
            [
              103.6758768,
              1.4799852
            ],
            [
              103.6762487,
              1.4797165
            ],
            [
              103.6767078,
              1.4793848
            ],
            [
              103.6772104,
              1.4794215
            ],
            [
              103.677292,
              1.4792899
            ],
            [
              103.6767799,
              1.47887
            ],
            [
              103.676849,
              1.4787691
            ],
            [
              103.6770402,
              1.4788009
            ],
            [
              103.6772634,
              1.4788487
            ],
            [
              103.6779859,
              1.4786044
            ],
            [
              103.6780656,
              1.4784451
            ],
            [
              103.6780974,
              1.478376
            ],
            [
              103.6782143,
              1.4783229
            ],
            [
              103.6783949,
              1.4782539
            ],
            [
              103.6782993,
              1.4780202
            ],
            [
              103.678735,
              1.4778875
            ],
            [
              103.6788387,
              1.4781538
            ],
            [
              103.6794153,
              1.4779302
            ],
            [
              103.6792487,
              1.4775332
            ],
            [
              103.6798026,
              1.4773338
            ],
            [
              103.6799143,
              1.476422
            ],
            [
              103.6798074,
              1.4763034
            ],
            [
              103.6796899,
              1.4763491
            ],
            [
              103.6796665,
              1.4763987
            ],
            [
              103.6793852,
              1.4764935
            ],
            [
              103.6792787,
              1.4765683
            ],
            [
              103.6770758,
              1.4773933
            ],
            [
              103.6767925,
              1.4773241
            ],
            [
              103.6758095,
              1.4779619
            ],
            [
              103.6756487,
              1.4781221
            ],
            [
              103.6751325,
              1.4784969
            ],
            [
              103.6750837,
              1.4785324
            ],
            [
              103.6746354,
              1.4788171
            ],
            [
              103.6738487,
              1.47945
            ]
          ]
        ]
      }
    },
    {
      "type": "Feature",
      "properties": {
        "Polygon_ID": "PG2017-WISMA-DAIMAN-ANCHOR",
        "Year": 2017,
        "Polygon_Name": "Wisma Daiman Landmark Anchor",
        "Locality_Area": "Taman Sentosa / Johor Bahru",
        "Polygon_Area_km2": "0.002401",
        "Geometry_CRS": "EPSG:4326 / WGS 84",
        "Geometry_Source_URL": "https://www.openstreetmap.org/way/176304886",
        "Notes": "Anchor-only polygon. Never treat this building outline as the flooded road extent."
      },
      "geometry": {
        "type": "Polygon",
        "coordinates": [
          [
            [
              103.7665484,
              1.4944405
            ],
            [
              103.7664753,
              1.4947925
            ],
            [
              103.7665115,
              1.494838
            ],
            [
              103.7669393,
              1.4948622
            ],
            [
              103.7669943,
              1.4948219
            ],
            [
              103.7670428,
              1.4945178
            ],
            [
              103.7665712,
              1.4944224
            ],
            [
              103.7665672,
              1.4944432
            ],
            [
              103.7665484,
              1.4944405
            ]
          ]
        ]
      }
    },
    {
      "type": "Feature",
      "properties": {
        "Polygon_ID": "PG2018-MELAYU-LIMA-KEDAI",
        "Year": 2018,
        "Polygon_Name": "Kampung Melayu Lima Kedai Residential Area",
        "Locality_Area": "Lima Kedai / Gelang Patah",
        "Polygon_Area_km2": "0.167286",
        "Geometry_CRS": "EPSG:4326 / WGS 84",
        "Geometry_Source_URL": "https://www.openstreetmap.org/way/683471898",
        "Notes": "Community analysis polygon; not automatically the exact observed inundation footprint."
      },
      "geometry": {
        "type": "Polygon",
        "coordinates": [
          [
            [
              103.6219212,
              1.5026829
            ],
            [
              103.6221269,
              1.5024542
            ],
            [
              103.6228266,
              1.5014957
            ],
            [
              103.6257843,
              1.5037827
            ],
            [
              103.6276997,
              1.5049791
            ],
            [
              103.6266098,
              1.5068595
            ],
            [
              103.6261874,
              1.5072115
            ],
            [
              103.6248327,
              1.506455
            ],
            [
              103.6241732,
              1.5059471
            ],
            [
              103.6243615,
              1.5055257
            ],
            [
              103.6219212,
              1.5026829
            ]
          ]
        ]
      }
    },
    {
      "type": "Feature",
      "properties": {
        "Polygon_ID": "PG2018-TAMAN-DAMAI-JAYA",
        "Year": 2018,
        "Polygon_Name": "Taman Damai Jaya Residential Area",
        "Locality_Area": "Skudai / Iskandar Puteri",
        "Polygon_Area_km2": "0.713393",
        "Geometry_CRS": "EPSG:4326 / WGS 84",
        "Geometry_Source_URL": "https://www.openstreetmap.org/way/681808163",
        "Notes": "Neighbourhood analysis polygon; not automatically the exact observed inundation footprint."
      },
      "geometry": {
        "type": "Polygon",
        "coordinates": [
          [
            [
              103.6395509,
              1.5029772
            ],
            [
              103.6405036,
              1.5021707
            ],
            [
              103.6418804,
              1.501345
            ],
            [
              103.6426756,
              1.5015198
            ],
            [
              103.6441112,
              1.5009483
            ],
            [
              103.6455262,
              1.5009362
            ],
            [
              103.647033,
              1.4995334
            ],
            [
              103.647198,
              1.4997061
            ],
            [
              103.649606,
              1.5022273
            ],
            [
              103.6525411,
              1.5052492
            ],
            [
              103.6526898,
              1.5054361
            ],
            [
              103.6519609,
              1.5061448
            ],
            [
              103.6516037,
              1.5064228
            ],
            [
              103.6503074,
              1.506476
            ],
            [
              103.6487366,
              1.5069565
            ],
            [
              103.6478669,
              1.5058087
            ],
            [
              103.6460059,
              1.5074674
            ],
            [
              103.6450413,
              1.5074684
            ],
            [
              103.6442959,
              1.5071591
            ],
            [
              103.6430492,
              1.5066961
            ],
            [
              103.6395509,
              1.5029772
            ]
          ]
        ]
      }
    },
    {
      "type": "Feature",
      "properties": {
        "Polygon_ID": "PG2019-TAMAN-NUSA-BAYU",
        "Year": 2019,
        "Polygon_Name": "Taman Nusa Bayu Residential Area",
        "Locality_Area": "Iskandar Puteri / Nusajaya",
        "Polygon_Area_km2": "1.019146",
        "Geometry_CRS": "EPSG:4326 / WGS 84",
        "Geometry_Source_URL": "https://www.openstreetmap.org/way/681880040",
        "Notes": "Community/neighbourhood analysis polygon; not automatically the exact observed inundation footprint."
      },
      "geometry": {
        "type": "Polygon",
        "coordinates": [
          [
            [
              103.5950946,
              1.4845784
            ],
            [
              103.5928811,
              1.4811328
            ],
            [
              103.5925638,
              1.4793895
            ],
            [
              103.5932736,
              1.4791976
            ],
            [
              103.5942782,
              1.4789738
            ],
            [
              103.5959668,
              1.4785442
            ],
            [
              103.6018251,
              1.4761605
            ],
            [
              103.603326,
              1.4755978
            ],
            [
              103.6046272,
              1.4769712
            ],
            [
              103.605535,
              1.4775581
            ],
            [
              103.6068907,
              1.478278
            ],
            [
              103.6079679,
              1.4786047
            ],
            [
              103.6084461,
              1.4785926
            ],
            [
              103.6086639,
              1.4787015
            ],
            [
              103.6088273,
              1.479004
            ],
            [
              103.609021,
              1.4795485
            ],
            [
              103.6091964,
              1.4801263
            ],
            [
              103.6082705,
              1.4801777
            ],
            [
              103.6069996,
              1.4803653
            ],
            [
              103.6074293,
              1.4812546
            ],
            [
              103.6045055,
              1.4840408
            ],
            [
              103.6026962,
              1.4819937
            ],
            [
              103.5982687,
              1.4834379
            ],
            [
              103.5950946,
              1.4845784
            ]
          ]
        ]
      }
    },
    {
      "type": "Feature",
      "properties": {
        "Polygon_ID": "PG2019-KG-SEPAKAT-BARU",
        "Year": 2019,
        "Polygon_Name": "Kampung Sepakat Baru Residential Area",
        "Locality_Area": "Skudai/Senai edge context",
        "Polygon_Area_km2": "0.105241",
        "Geometry_CRS": "EPSG:4326 / WGS 84",
        "Geometry_Source_URL": "https://www.openstreetmap.org/way/463347299",
        "Notes": "Community analysis polygon, not an observed inundation footprint. Preserve the location's administrative/context provenance note."
      },
      "geometry": {
        "type": "Polygon",
        "coordinates": [
          [
            [
              103.6603483,
              1.5735834
            ],
            [
              103.6608408,
              1.5730391
            ],
            [
              103.6614802,
              1.5718246
            ],
            [
              103.6620649,
              1.5705462
            ],
            [
              103.66214,
              1.5700124
            ],
            [
              103.6621654,
              1.5689025
            ],
            [
              103.6619744,
              1.5678612
            ],
            [
              103.6619644,
              1.5678067
            ],
            [
              103.6617634,
              1.5668387
            ],
            [
              103.661736,
              1.5656699
            ],
            [
              103.6615502,
              1.5652101
            ],
            [
              103.6613176,
              1.5646342
            ],
            [
              103.661216,
              1.5640607
            ],
            [
              103.6611742,
              1.562322
            ],
            [
              103.6603015,
              1.5588507
            ],
            [
              103.6598473,
              1.5567535
            ],
            [
              103.6598054,
              1.5549491
            ],
            [
              103.6597397,
              1.5541365
            ],
            [
              103.6600744,
              1.5541664
            ],
            [
              103.6603063,
              1.5568157
            ],
            [
              103.6604389,
              1.5584088
            ],
            [
              103.6608096,
              1.5598485
            ],
            [
              103.6610845,
              1.5610195
            ],
            [
              103.6613774,
              1.5610195
            ],
            [
              103.6616643,
              1.562334
            ],
            [
              103.6615328,
              1.5624953
            ],
            [
              103.6616344,
              1.5635588
            ],
            [
              103.6615985,
              1.5638516
            ],
            [
              103.6618615,
              1.5638695
            ],
            [
              103.661999,
              1.5645566
            ],
            [
              103.661742,
              1.5646641
            ],
            [
              103.6619691,
              1.5656141
            ],
            [
              103.6620229,
              1.5663849
            ],
            [
              103.662525,
              1.5685178
            ],
            [
              103.6626027,
              1.5696351
            ],
            [
              103.6624712,
              1.5710093
            ],
            [
              103.6621365,
              1.5719414
            ],
            [
              103.6618077,
              1.5727002
            ],
            [
              103.6613116,
              1.5734709
            ],
            [
              103.6608141,
              1.5740803
            ],
            [
              103.6603483,
              1.5735834
            ]
          ]
        ]
      }
    },
    {
      "type": "Feature",
      "properties": {
        "Polygon_ID": "PG2020-KG-BARU-MUAFAKAT",
        "Year": 2020,
        "Polygon_Name": "Kampung Baru Muafakat Residential Area",
        "Locality_Area": "Gelang Patah / Iskandar Puteri",
        "Polygon_Area_km2": "0.13438",
        "Geometry_CRS": "EPSG:4326 / WGS 84",
        "Geometry_Source_URL": "https://www.openstreetmap.org/way/468638324",
        "Notes": "Community analysis polygon only; not the exact observed inundation footprint."
      },
      "geometry": {
        "type": "Polygon",
        "coordinates": [
          [
            [
              103.5911347,
              1.445608
            ],
            [
              103.5910588,
              1.4452607
            ],
            [
              103.5915323,
              1.4451891
            ],
            [
              103.5915679,
              1.4451634
            ],
            [
              103.5918709,
              1.444901
            ],
            [
              103.5919878,
              1.4447991
            ],
            [
              103.592064,
              1.4447328
            ],
            [
              103.5921573,
              1.4446445
            ],
            [
              103.5921931,
              1.4445942
            ],
            [
              103.592217,
              1.4444459
            ],
            [
              103.5922488,
              1.4443425
            ],
            [
              103.5924668,
              1.4440739
            ],
            [
              103.5924945,
              1.4440274
            ],
            [
              103.5925755,
              1.4435934
            ],
            [
              103.5927144,
              1.4429863
            ],
            [
              103.5927522,
              1.4428211
            ],
            [
              103.5932246,
              1.4429321
            ],
            [
              103.5933539,
              1.4429624
            ],
            [
              103.5936093,
              1.4430224
            ],
            [
              103.5936471,
              1.4430536
            ],
            [
              103.5939391,
              1.4427647
            ],
            [
              103.5941924,
              1.4423921
            ],
            [
              103.5945603,
              1.4422846
            ],
            [
              103.5959283,
              1.4403745
            ],
            [
              103.5969108,
              1.4408189
            ],
            [
              103.5965141,
              1.4431515
            ],
            [
              103.5965427,
              1.4439981
            ],
            [
              103.5956109,
              1.4439946
            ],
            [
              103.5952274,
              1.4443021
            ],
            [
              103.5949487,
              1.4443672
            ],
            [
              103.5948365,
              1.4442659
            ],
            [
              103.5943408,
              1.4446277
            ],
            [
              103.593903,
              1.4447326
            ],
            [
              103.593599,
              1.4445409
            ],
            [
              103.5934217,
              1.4447254
            ],
            [
              103.5930996,
              1.4445626
            ],
            [
              103.5928029,
              1.4445336
            ],
            [
              103.5926256,
              1.4447145
            ],
            [
              103.5927088,
              1.4448447
            ],
            [
              103.5926292,
              1.4450762
            ],
            [
              103.5921552,
              1.4451631
            ],
            [
              103.5920321,
              1.445116
            ],
            [
              103.5916052,
              1.4454742
            ],
            [
              103.5911347,
              1.445608
            ]
          ]
        ]
      }
    },
    {
      "type": "Feature",
      "properties": {
        "Polygon_ID": "PG2020-KG-MELAYU-KANGKAR-PULAI",
        "Year": 2020,
        "Polygon_Name": "Kampung Melayu Kangkar Pulai Residential Area",
        "Locality_Area": "Kangkar Pulai / Iskandar Puteri",
        "Polygon_Area_km2": "0.345854",
        "Geometry_CRS": "EPSG:4326 / WGS 84",
        "Geometry_Source_URL": "https://www.openstreetmap.org/way/656735022",
        "Notes": "Parent-community analysis polygon only; do not interpret the whole polygon as the Jalan Tawakal inundation footprint."
      },
      "geometry": {
        "type": "Polygon",
        "coordinates": [
          [
            [
              103.583825,
              1.5617563
            ],
            [
              103.5843694,
              1.5617903
            ],
            [
              103.5895231,
              1.5591585
            ],
            [
              103.5896106,
              1.5589496
            ],
            [
              103.5893624,
              1.5583169
            ],
            [
              103.5892876,
              1.5556442
            ],
            [
              103.5891093,
              1.5557793
            ],
            [
              103.5884591,
              1.5559809
            ],
            [
              103.5880147,
              1.5560575
            ],
            [
              103.5866653,
              1.5556503
            ],
            [
              103.5854256,
              1.5552188
            ],
            [
              103.5837627,
              1.5553407
            ],
            [
              103.5837908,
              1.5580549
            ],
            [
              103.583825,
              1.5617563
            ]
          ]
        ]
      }
    },
    {
      "type": "Feature",
      "properties": {
        "Polygon_ID": "PG2021-KEMPAS-LURAH",
        "Object_Name": "Kempas Lurah",
        "CRS": "EPSG:4326 / WGS84",
        "Area_km2": 0.619978,
        "Perimeter_km": 3.542863,
        "Geometry_Valid": true,
        "Geometry_Closed": true,
        "Interpretation": "Defensible community/residential analysis boundary; not an observed inundation footprint.",
        "Source_URL": "https://www.openstreetmap.org/way/407852454",
        "Annual_Pass": "2021 Polygon Closure"
      },
      "geometry": {
        "type": "Polygon",
        "coordinates": [
          [
            [
              103.716333,
              1.5343375
            ],
            [
              103.7203241,
              1.5293396
            ],
            [
              103.71938,
              1.5282671
            ],
            [
              103.7202893,
              1.5269702
            ],
            [
              103.715284,
              1.5254401
            ],
            [
              103.7151137,
              1.5255063
            ],
            [
              103.7118719,
              1.5245453
            ],
            [
              103.7115345,
              1.5249308
            ],
            [
              103.7124738,
              1.5253081
            ],
            [
              103.712706,
              1.5282342
            ],
            [
              103.7116622,
              1.5289591
            ],
            [
              103.7110511,
              1.5293632
            ],
            [
              103.716333,
              1.5343375
            ]
          ]
        ]
      }
    },
    {
      "type": "Feature",
      "properties": {
        "Polygon_ID": "PG2021-TAMAN-MAWAR",
        "Object_Name": "Taman Mawar",
        "CRS": "EPSG:4326 / WGS84",
        "Area_km2": 1.232917,
        "Perimeter_km": 4.505178,
        "Geometry_Valid": true,
        "Geometry_Closed": true,
        "Interpretation": "Defensible community/residential analysis boundary; not an observed inundation footprint.",
        "Source_URL": "https://www.openstreetmap.org/way/617816429",
        "Annual_Pass": "2021 Polygon Closure"
      },
      "geometry": {
        "type": "Polygon",
        "coordinates": [
          [
            [
              103.9009559,
              1.4736497
            ],
            [
              103.8968816,
              1.4754756
            ],
            [
              103.894642,
              1.4764114
            ],
            [
              103.8925754,
              1.4763337
            ],
            [
              103.8917787,
              1.4759636
            ],
            [
              103.89154,
              1.4753081
            ],
            [
              103.8915347,
              1.4749514
            ],
            [
              103.89176,
              1.4742087
            ],
            [
              103.8918284,
              1.473049
            ],
            [
              103.8917693,
              1.4724431
            ],
            [
              103.8915332,
              1.4710501
            ],
            [
              103.8896917,
              1.4669938
            ],
            [
              103.8896646,
              1.4665708
            ],
            [
              103.8898363,
              1.4661203
            ],
            [
              103.8909565,
              1.4639096
            ],
            [
              103.8912891,
              1.4636843
            ],
            [
              103.891804,
              1.4632017
            ],
            [
              103.895171,
              1.4618683
            ],
            [
              103.895407,
              1.4619219
            ],
            [
              103.8968963,
              1.4649027
            ],
            [
              103.8978577,
              1.4669742
            ],
            [
              103.9009559,
              1.4736497
            ]
          ]
        ]
      }
    }
  ]
}