{
  "type": "FeatureCollection",
  "name": "R003_2016_Polygon_Closure",
  "features": [
    {
      "type": "Feature",
      "properties": {
        "Polygon_ID": "PG2016-HSA-CAMPUS",
        "Location_ID": "LOC-JB-HSA",
        "Boundary_Type": "OSM hospital facility analysis boundary",
        "CRS": "EPSG:4326",
        "Area_km2": 0.288325,
        "Interpretation": "Analysis/facility polygon; not observed flood footprint",
        "Source_URL": "https://www.openstreetmap.org/way/566502798"
      },
      "geometry": {
        "type": "Polygon",
        "coordinates": [
          [
            [
              103.7452642,
              1.4579464
            ],
            [
              103.7456721,
              1.4578212
            ],
            [
              103.7464042,
              1.4575678
            ],
            [
              103.7470547,
              1.4573944
            ],
            [
              103.7477051,
              1.4572299
            ],
            [
              103.7479165,
              1.4575865
            ],
            [
              103.7481655,
              1.4579855
            ],
            [
              103.7483951,
              1.4583318
            ],
            [
              103.7477773,
              1.4586615
            ],
            [
              103.7477606,
              1.4587658
            ],
            [
              103.7482429,
              1.4597764
            ],
            [
              103.7489085,
              1.4596504
            ],
            [
              103.7494223,
              1.4596228
            ],
            [
              103.7495392,
              1.4596401
            ],
            [
              103.7501815,
              1.4597653
            ],
            [
              103.750075,
              1.4605759
            ],
            [
              103.7500951,
              1.4608581
            ],
            [
              103.7494093,
              1.4615072
            ],
            [
              103.7496102,
              1.461668
            ],
            [
              103.7492937,
              1.4625655
            ],
            [
              103.7490436,
              1.4629333
            ],
            [
              103.7489239,
              1.4631507
            ],
            [
              103.7482867,
              1.4629123
            ],
            [
              103.7473453,
              1.4626658
            ],
            [
              103.7467328,
              1.4624685
            ],
            [
              103.7464697,
              1.4623411
            ],
            [
              103.7456311,
              1.4616014
            ],
            [
              103.7450063,
              1.4610261
            ],
            [
              103.7449081,
              1.4608846
            ],
            [
              103.7446849,
              1.4609038
            ],
            [
              103.7444047,
              1.4610395
            ],
            [
              103.7442152,
              1.4610721
            ],
            [
              103.7441023,
              1.4610269
            ],
            [
              103.7440347,
              1.4609328
            ],
            [
              103.7437527,
              1.4603838
            ],
            [
              103.743505,
              1.4595274
            ],
            [
              103.7433712,
              1.459036
            ],
            [
              103.7432374,
              1.4586232
            ],
            [
              103.7432434,
              1.4585548
            ],
            [
              103.7432621,
              1.4584886
            ],
            [
              103.7432975,
              1.458445
            ],
            [
              103.7433572,
              1.458416
            ],
            [
              103.744471,
              1.458155
            ],
            [
              103.7452642,
              1.4579464
            ]
          ]
        ]
      }
    },
    {
      "type": "Feature",
      "properties": {
        "Polygon_ID": "PG2016-CBD-SEGGET",
        "Location_ID": "LOC-JB-CBD-WAF-SEGGET",
        "Boundary_Type": "Derived 25 m core project-corridor analysis polygon",
        "CRS": "EPSG:4326",
        "Area_km2": 0.029149,
        "Centerline_Length_m": 1166.0,
        "Buffer_each_side_m": 12.5,
        "Interpretation": "Derived analysis corridor; not observed flood footprint",
        "Source_URL": "https://waterwaymap.org/river/Sungai%20Segget%20004200366310/geometry.geojson"
      },
      "geometry": {
        "type": "Polygon",
        "coordinates": [
          [
            [
              103.76169884788742,
              1.4650214537330752
            ],
            [
              103.76179045193872,
              1.46487750450635
            ],
            [
              103.76207066752798,
              1.4643301299511442
            ],
            [
              103.7626500963615,
              1.463317380387031
            ],
            [
              103.76323664880707,
              1.462127259424781
            ],
            [
              103.7638586486402,
              1.4609822596917819
            ],
            [
              103.7642726010578,
              1.4601423562035565
            ],
            [
              103.76448172182118,
              1.4597591348869332
            ],
            [
              103.76456311943562,
              1.4595921112025747
            ],
            [
              103.76466735991443,
              1.4592803825083962
            ],
            [
              103.76502128533005,
              1.458625473405634
            ],
            [
              103.76516441224837,
              1.4584092816927665
            ],
            [
              103.76560303357522,
              1.4575897261816342
            ],
            [
              103.76574601943645,
              1.4574105296160884
            ],
            [
              103.76627748308117,
              1.4568978003246402
            ],
            [
              103.76659510596376,
              1.4566238505982338
            ],
            [
              103.76644889404103,
              1.4564521494040614
            ],
            [
              103.76612651692395,
              1.456730199677538
            ],
            [
              103.7655799805696,
              1.4572574703855878
            ],
            [
              103.76541496643186,
              1.4574642738188437
            ],
            [
              103.76497158775884,
              1.4582927183073
            ],
            [
              103.76482871467715,
              1.4585085265944522
            ],
            [
              103.76446064009298,
              1.459189617490358
            ],
            [
              103.76435488057176,
              1.4595058887959564
            ],
            [
              103.76428227818616,
              1.4596548651125298
            ],
            [
              103.76407339894953,
              1.4600376437959284
            ],
            [
              103.76365935136715,
              1.4608777403076914
            ],
            [
              103.7630373512003,
              1.4620227405746904
            ],
            [
              103.76245190364585,
              1.4632106196125498
            ],
            [
              103.76187333247938,
              1.4642218700485117
            ],
            [
              103.76159554806856,
              1.4647644954935348
            ],
            [
              103.76150515211984,
              1.4649065462669064
            ],
            [
              103.76117117474423,
              1.4655282270262773
            ],
            [
              103.76136882526309,
              1.465635772973343
            ],
            [
              103.76169884788742,
              1.4650214537330752
            ]
          ]
        ]
      }
    }
  ]
}