{
  "type": "FeatureCollection",
  "name": "R012_2020_Polygon_Closure",
  "features": [
    {
      "type": "Feature",
      "properties": {
        "Polygon_ID": "PG2020-KG-BARU-MUAFAKAT",
        "Location_ID": "LOC-JB-KG-BARU-MUAFAKAT-GP",
        "Name": "Kampung Baru Muafakat",
        "Year": 2020,
        "Geometry_Role": "community_analysis_polygon",
        "Area_km2": 0.13438,
        "CRS": "EPSG:4326",
        "Interpretation": "analysis/community polygon; not observed flood-water footprint",
        "Source_URL": "https://www.openstreetmap.org/way/468638324"
      },
      "geometry": {
        "type": "Polygon",
        "coordinates": [
          [
            [
              103.5911347,
              1.445608
            ],
            [
              103.5910588,
              1.4452607
            ],
            [
              103.5915323,
              1.4451891
            ],
            [
              103.5915679,
              1.4451634
            ],
            [
              103.5918709,
              1.444901
            ],
            [
              103.5919878,
              1.4447991
            ],
            [
              103.592064,
              1.4447328
            ],
            [
              103.5921573,
              1.4446445
            ],
            [
              103.5921931,
              1.4445942
            ],
            [
              103.592217,
              1.4444459
            ],
            [
              103.5922488,
              1.4443425
            ],
            [
              103.5924668,
              1.4440739
            ],
            [
              103.5924945,
              1.4440274
            ],
            [
              103.5925755,
              1.4435934
            ],
            [
              103.5927144,
              1.4429863
            ],
            [
              103.5927522,
              1.4428211
            ],
            [
              103.5932246,
              1.4429321
            ],
            [
              103.5933539,
              1.4429624
            ],
            [
              103.5936093,
              1.4430224
            ],
            [
              103.5936471,
              1.4430536
            ],
            [
              103.5939391,
              1.4427647
            ],
            [
              103.5941924,
              1.4423921
            ],
            [
              103.5945603,
              1.4422846
            ],
            [
              103.5959283,
              1.4403745
            ],
            [
              103.5969108,
              1.4408189
            ],
            [
              103.5965141,
              1.4431515
            ],
            [
              103.5965427,
              1.4439981
            ],
            [
              103.5956109,
              1.4439946
            ],
            [
              103.5952274,
              1.4443021
            ],
            [
              103.5949487,
              1.4443672
            ],
            [
              103.5948365,
              1.4442659
            ],
            [
              103.5943408,
              1.4446277
            ],
            [
              103.593903,
              1.4447326
            ],
            [
              103.593599,
              1.4445409
            ],
            [
              103.5934217,
              1.4447254
            ],
            [
              103.5930996,
              1.4445626
            ],
            [
              103.5928029,
              1.4445336
            ],
            [
              103.5926256,
              1.4447145
            ],
            [
              103.5927088,
              1.4448447
            ],
            [
              103.5926292,
              1.4450762
            ],
            [
              103.5921552,
              1.4451631
            ],
            [
              103.5920321,
              1.445116
            ],
            [
              103.5916052,
              1.4454742
            ],
            [
              103.5911347,
              1.445608
            ]
          ]
        ]
      }
    },
    {
      "type": "Feature",
      "properties": {
        "Polygon_ID": "PG2020-KG-MELAYU-KANGKAR-PULAI",
        "Location_ID": "LOC-JB-JLN-TAWAKAL-KG-MELAYU-KANGKAR-PULAI",
        "Name": "Kampung Melayu Kangkar Pulai",
        "Year": 2020,
        "Geometry_Role": "parent_community_analysis_polygon_for_road_event",
        "Area_km2": 0.345854,
        "CRS": "EPSG:4326",
        "Interpretation": "analysis/community polygon; not observed flood-water footprint",
        "Source_URL": "https://www.openstreetmap.org/way/656735022"
      },
      "geometry": {
        "type": "Polygon",
        "coordinates": [
          [
            [
              103.583825,
              1.5617563
            ],
            [
              103.5843694,
              1.5617903
            ],
            [
              103.5895231,
              1.5591585
            ],
            [
              103.5896106,
              1.5589496
            ],
            [
              103.5893624,
              1.5583169
            ],
            [
              103.5892876,
              1.5556442
            ],
            [
              103.5891093,
              1.5557793
            ],
            [
              103.5884591,
              1.5559809
            ],
            [
              103.5880147,
              1.5560575
            ],
            [
              103.5866653,
              1.5556503
            ],
            [
              103.5854256,
              1.5552188
            ],
            [
              103.5837627,
              1.5553407
            ],
            [
              103.5837908,
              1.5580549
            ],
            [
              103.583825,
              1.5617563
            ]
          ]
        ]
      }
    }
  ]
}